<?xml version="1.0" encoding="UTF-8"?><gpx version="1.1" creator="godune.ru" xmlns="http://www.topografix.com/GPX/1/1"><metadata><name>Амалиенау: виллы и парк</name></metadata><trk><name>Амалиенау: виллы и парк</name><trkseg><trkpt lat="54.7154073" lon="20.4660675"/><trkpt lat="54.7153806" lon="20.4661241"/><trkpt lat="54.7153743" lon="20.4661376"/><trkpt lat="54.7153529" lon="20.4661831"/><trkpt lat="54.7153349" lon="20.4662213"/><trkpt lat="54.7153227" lon="20.4662473"/><trkpt lat="54.7156265" lon="20.4668612"/><trkpt lat="54.715911" lon="20.467436"/><trkpt lat="54.7163872" lon="20.4683983"/><trkpt lat="54.7165313" lon="20.4686939"/><trkpt lat="54.7165184" lon="20.4687294"/><trkpt lat="54.7165687" lon="20.4688277"/><trkpt lat="54.7172712" lon="20.4701983"/><trkpt lat="54.7172902" lon="20.4702348"/><trkpt lat="54.7179688" lon="20.4715384"/><trkpt lat="54.7179894" lon="20.4715784"/><trkpt lat="54.7180373" lon="20.4715086"/><trkpt lat="54.7180576" lon="20.4714712"/><trkpt lat="54.7180677" lon="20.4714577"/><trkpt lat="54.7180814" lon="20.4714325"/><trkpt lat="54.7180934" lon="20.471458"/><trkpt lat="54.7183794" lon="20.4720399"/><trkpt lat="54.7184052" lon="20.4720814"/><trkpt lat="54.7184492" lon="20.4721524"/><trkpt lat="54.7188618" lon="20.4729675"/><trkpt lat="54.7192988" lon="20.4738407"/><trkpt lat="54.7193937" lon="20.4739805"/><trkpt lat="54.7194779" lon="20.4739269"/><trkpt lat="54.7195098" lon="20.4739236"/><trkpt lat="54.7202091" lon="20.4738496"/><trkpt lat="54.720624" lon="20.4738215"/><trkpt lat="54.72063" lon="20.4737953"/><trkpt lat="54.7206706" lon="20.4738226"/><trkpt lat="54.7207275" lon="20.4738624"/><trkpt lat="54.7207757" lon="20.4738955"/><trkpt lat="54.7206291" lon="20.4745556"/><trkpt lat="54.7205971" lon="20.4747642"/><trkpt lat="54.7214093" lon="20.4747234"/><trkpt lat="54.7214044" lon="20.4740462"/><trkpt lat="54.7214269" lon="20.4739837"/><trkpt lat="54.721461" lon="20.4739465"/><trkpt lat="54.7217411" lon="20.4739279"/><trkpt lat="54.721461" lon="20.4739465"/><trkpt lat="54.7214269" lon="20.4739837"/><trkpt lat="54.7214044" lon="20.4740462"/><trkpt lat="54.7214093" lon="20.4747234"/><trkpt lat="54.7205971" lon="20.4747642"/><trkpt lat="54.7205795" lon="20.4748825"/><trkpt lat="54.7205662" lon="20.4749725"/><trkpt lat="54.7205215" lon="20.4751519"/><trkpt lat="54.7204621" lon="20.4757044"/><trkpt lat="54.7204274" lon="20.4756326"/><trkpt lat="54.7203636" lon="20.4755876"/><trkpt lat="54.7203164" lon="20.475553"/><trkpt lat="54.7202629" lon="20.475507"/><trkpt lat="54.720218" lon="20.4754669"/><trkpt lat="54.7201901" lon="20.4755045"/><trkpt lat="54.7201674" lon="20.4755841"/><trkpt lat="54.7201609" lon="20.4756446"/><trkpt lat="54.7201463" lon="20.4756683"/><trkpt lat="54.720113" lon="20.4757341"/><trkpt lat="54.7200737" lon="20.475801"/><trkpt lat="54.7200295" lon="20.4759246"/><trkpt lat="54.7194268" lon="20.4759514"/><trkpt lat="54.7194271" lon="20.4758679"/><trkpt lat="54.7194261" lon="20.4757989"/><trkpt lat="54.7194271" lon="20.4758679"/><trkpt lat="54.7194268" lon="20.4759514"/><trkpt lat="54.7194265" lon="20.4760149"/><trkpt lat="54.7196512" lon="20.4760014"/><trkpt lat="54.7196773" lon="20.476278"/><trkpt lat="54.7197427" lon="20.4764944"/><trkpt lat="54.7198196" lon="20.4765876"/><trkpt lat="54.7196147" lon="20.4767971"/><trkpt lat="54.7195928" lon="20.477254"/></trkseg></trk></gpx>