<?xml version="1.0" encoding="UTF-8"?><gpx version="1.1" creator="godune.ru" xmlns="http://www.topografix.com/GPX/1/1"><metadata><name>Балтийск: от вокзала к маяку</name></metadata><trk><name>Балтийск: от вокзала к маяку</name><trkseg><trkpt lat="54.6447112" lon="19.8965832"/><trkpt lat="54.6441297" lon="19.8955198"/><trkpt lat="54.6441883" lon="19.8954286"/><trkpt lat="54.644148" lon="19.8953593"/><trkpt lat="54.6439488" lon="19.8950168"/><trkpt lat="54.6438385" lon="19.8948729"/><trkpt lat="54.6438421" lon="19.8947733"/><trkpt lat="54.6438444" lon="19.8947078"/><trkpt lat="54.6437684" lon="19.8946914"/><trkpt lat="54.6437607" lon="19.8945364"/><trkpt lat="54.6437899" lon="19.894492"/><trkpt lat="54.6437879" lon="19.8943841"/><trkpt lat="54.643665" lon="19.8940099"/><trkpt lat="54.6436323" lon="19.8938839"/><trkpt lat="54.6433063" lon="19.8937998"/><trkpt lat="54.6431231" lon="19.8933052"/><trkpt lat="54.6431804" lon="19.8927635"/><trkpt lat="54.6430544" lon="19.8927362"/><trkpt lat="54.6431748" lon="19.8920311"/><trkpt lat="54.6431334" lon="19.892018"/><trkpt lat="54.6430335" lon="19.8919652"/><trkpt lat="54.6429985" lon="19.8919407"/><trkpt lat="54.6429743" lon="19.8919238"/><trkpt lat="54.6429272" lon="19.8918908"/><trkpt lat="54.6419746" lon="19.8910883"/><trkpt lat="54.6418374" lon="19.8909727"/><trkpt lat="54.6415081" lon="19.8906954"/><trkpt lat="54.6413981" lon="19.890636"/><trkpt lat="54.6412068" lon="19.8912583"/><trkpt lat="54.6407939" lon="19.8913018"/><trkpt lat="54.6404985" lon="19.891356"/><trkpt lat="54.6404541" lon="19.8913642"/><trkpt lat="54.6402436" lon="19.8914028"/><trkpt lat="54.6401833" lon="19.8915082"/><trkpt lat="54.6398137" lon="19.8921407"/><trkpt lat="54.6397715" lon="19.892067"/><trkpt lat="54.6392925" lon="19.8929017"/><trkpt lat="54.639159" lon="19.8931342"/><trkpt lat="54.6387569" lon="19.8931371"/><trkpt lat="54.6387162" lon="19.8930673"/><trkpt lat="54.6386916" lon="19.8930725"/><trkpt lat="54.6387087" lon="19.8931879"/><trkpt lat="54.638732" lon="19.8933045"/><trkpt lat="54.6387087" lon="19.8931879"/><trkpt lat="54.6386916" lon="19.8930725"/><trkpt lat="54.6387162" lon="19.8930673"/><trkpt lat="54.6387569" lon="19.8931371"/><trkpt lat="54.639159" lon="19.8931342"/><trkpt lat="54.6392925" lon="19.8929017"/><trkpt lat="54.6397715" lon="19.892067"/><trkpt lat="54.6398137" lon="19.8921407"/><trkpt lat="54.6401833" lon="19.8915082"/><trkpt lat="54.6402436" lon="19.8914028"/><trkpt lat="54.6404541" lon="19.8913642"/><trkpt lat="54.6404985" lon="19.891356"/><trkpt lat="54.6407939" lon="19.8913018"/><trkpt lat="54.6412068" lon="19.8912583"/><trkpt lat="54.6413981" lon="19.890636"/><trkpt lat="54.6415081" lon="19.8906954"/><trkpt lat="54.6418374" lon="19.8909727"/><trkpt lat="54.6419746" lon="19.8910883"/><trkpt lat="54.6429272" lon="19.8918908"/><trkpt lat="54.6429743" lon="19.8919238"/><trkpt lat="54.6429985" lon="19.8919407"/><trkpt lat="54.6430335" lon="19.8919652"/><trkpt lat="54.6431334" lon="19.892018"/><trkpt lat="54.6431748" lon="19.8920311"/><trkpt lat="54.6430544" lon="19.8927362"/><trkpt lat="54.6431804" lon="19.8927635"/><trkpt lat="54.6431231" lon="19.8933052"/><trkpt lat="54.6433063" lon="19.8937998"/><trkpt lat="54.6436323" lon="19.8938839"/><trkpt lat="54.643665" lon="19.8940099"/><trkpt lat="54.6437879" lon="19.8943841"/><trkpt lat="54.6437899" lon="19.894492"/><trkpt lat="54.6437607" lon="19.8945364"/><trkpt lat="54.6437684" lon="19.8946914"/><trkpt lat="54.6438444" lon="19.8947078"/><trkpt lat="54.6438421" lon="19.8947733"/><trkpt lat="54.6438385" lon="19.8948729"/><trkpt lat="54.6439488" lon="19.8950168"/><trkpt lat="54.644148" lon="19.8953593"/><trkpt lat="54.6441883" lon="19.8954286"/><trkpt lat="54.6441297" lon="19.8955198"/><trkpt lat="54.6447112" lon="19.8965832"/></trkseg></trk></gpx>