<?xml version="1.0" encoding="UTF-8"?><gpx version="1.1" creator="godune.ru" xmlns="http://www.topografix.com/GPX/1/1"><metadata><name>Калининград на космической волне</name></metadata><trk><name>Калининград на космической волне</name><trkseg><trkpt lat="54.7206813" lon="20.4823937"/><trkpt lat="54.7206989" lon="20.4832081"/><trkpt lat="54.7206989" lon="20.4834787"/><trkpt lat="54.7206842" lon="20.4836983"/><trkpt lat="54.7206606" lon="20.4838591"/><trkpt lat="54.7204021" lon="20.4847977"/><trkpt lat="54.7203716" lon="20.4849084"/><trkpt lat="54.7203231" lon="20.4850296"/><trkpt lat="54.7202999" lon="20.4850876"/><trkpt lat="54.7200339" lon="20.485442"/><trkpt lat="54.720015" lon="20.4854724"/><trkpt lat="54.7199925" lon="20.4855086"/><trkpt lat="54.7199647" lon="20.4855533"/><trkpt lat="54.7196182" lon="20.4853633"/><trkpt lat="54.7193452" lon="20.4853365"/><trkpt lat="54.7189768" lon="20.4853284"/><trkpt lat="54.7179699" lon="20.485366"/><trkpt lat="54.7178257" lon="20.4853579"/><trkpt lat="54.7172347" lon="20.4853164"/><trkpt lat="54.7157009" lon="20.4853063"/><trkpt lat="54.7156493" lon="20.4853992"/><trkpt lat="54.7156399" lon="20.4855139"/><trkpt lat="54.7156104" lon="20.4856522"/><trkpt lat="54.7155608" lon="20.4857581"/><trkpt lat="54.715525" lon="20.48581"/><trkpt lat="54.7155074" lon="20.4858171"/><trkpt lat="54.7154754" lon="20.485862"/><trkpt lat="54.7154045" lon="20.4859205"/><trkpt lat="54.7153665" lon="20.4859002"/><trkpt lat="54.7153377" lon="20.4858893"/><trkpt lat="54.7153081" lon="20.4858822"/><trkpt lat="54.7152463" lon="20.4858884"/><trkpt lat="54.7151814" lon="20.4858879"/><trkpt lat="54.7151168" lon="20.485828"/><trkpt lat="54.7150706" lon="20.4857741"/><trkpt lat="54.7150336" lon="20.4857412"/><trkpt lat="54.7150206" lon="20.4857363"/><trkpt lat="54.7149953" lon="20.4857427"/><trkpt lat="54.7149233" lon="20.4857976"/><trkpt lat="54.7148787" lon="20.4858316"/><trkpt lat="54.7146272" lon="20.4859802"/><trkpt lat="54.7144172" lon="20.4861224"/><trkpt lat="54.7143056" lon="20.4862316"/><trkpt lat="54.7142739" lon="20.4863356"/><trkpt lat="54.7141283" lon="20.4865193"/><trkpt lat="54.7140121" lon="20.4866736"/><trkpt lat="54.713923" lon="20.4867688"/><trkpt lat="54.7138715" lon="20.4868237"/><trkpt lat="54.7138339" lon="20.486852"/><trkpt lat="54.7137866" lon="20.4869016"/><trkpt lat="54.7137153" lon="20.4869914"/><trkpt lat="54.7134818" lon="20.487559"/><trkpt lat="54.7132699" lon="20.4881421"/><trkpt lat="54.7130727" lon="20.488646"/><trkpt lat="54.7130103" lon="20.4888372"/><trkpt lat="54.7129391" lon="20.4890581"/><trkpt lat="54.7129227" lon="20.4891349"/><trkpt lat="54.7128965" lon="20.4892579"/><trkpt lat="54.7127481" lon="20.4899482"/><trkpt lat="54.7127386" lon="20.4899926"/><trkpt lat="54.7127005" lon="20.4901699"/><trkpt lat="54.7126639" lon="20.4903478"/><trkpt lat="54.7125656" lon="20.4908267"/><trkpt lat="54.7125435" lon="20.4908024"/><trkpt lat="54.7125018" lon="20.4907722"/><trkpt lat="54.7124409" lon="20.4907389"/><trkpt lat="54.7123765" lon="20.4906919"/><trkpt lat="54.7123177" lon="20.49088"/><trkpt lat="54.7122951" lon="20.4910135"/><trkpt lat="54.7121896" lon="20.4916363"/><trkpt lat="54.712068" lon="20.4923545"/><trkpt lat="54.7120458" lon="20.4924406"/><trkpt lat="54.7118629" lon="20.4929162"/><trkpt lat="54.7118169" lon="20.4930172"/><trkpt lat="54.7114789" lon="20.4936234"/><trkpt lat="54.7114045" lon="20.493733"/><trkpt lat="54.7113459" lon="20.4937975"/><trkpt lat="54.7112555" lon="20.4938764"/><trkpt lat="54.7108301" lon="20.4933994"/><trkpt lat="54.7106768" lon="20.4937292"/><trkpt lat="54.7106446" lon="20.4938036"/><trkpt lat="54.7106096" lon="20.4938842"/><trkpt lat="54.7105973" lon="20.4939126"/><trkpt lat="54.7102284" lon="20.493722"/><trkpt lat="54.710196" lon="20.4937585"/><trkpt lat="54.7100754" lon="20.4938959"/><trkpt lat="54.7101792" lon="20.4940842"/><trkpt lat="54.7101574" lon="20.4940928"/><trkpt lat="54.7101366" lon="20.4941142"/><trkpt lat="54.7101107" lon="20.4942104"/><trkpt lat="54.7101229" lon="20.4943624"/><trkpt lat="54.7103119" lon="20.49468"/><trkpt lat="54.7103311" lon="20.4949227"/><trkpt lat="54.7103203" lon="20.4951197"/><trkpt lat="54.7103283" lon="20.4953288"/><trkpt lat="54.7102296" lon="20.4952884"/><trkpt lat="54.7101373" lon="20.495252"/><trkpt lat="54.7100386" lon="20.495213"/><trkpt lat="54.7097343" lon="20.4951005"/><trkpt lat="54.7096366" lon="20.495053"/><trkpt lat="54.7094687" lon="20.4949668"/><trkpt lat="54.7093952" lon="20.4949454"/><trkpt lat="54.7089663" lon="20.4948259"/><trkpt lat="54.7088334" lon="20.4947917"/><trkpt lat="54.7084625" lon="20.4947194"/><trkpt lat="54.7083962" lon="20.4947019"/><trkpt lat="54.7082262" lon="20.4946569"/><trkpt lat="54.7081804" lon="20.4946478"/><trkpt lat="54.7077004" lon="20.4945519"/><trkpt lat="54.7075787" lon="20.4945252"/><trkpt lat="54.7073095" lon="20.4945101"/><trkpt lat="54.7073046" lon="20.4946504"/><trkpt lat="54.707252" lon="20.4946447"/><trkpt lat="54.7071848" lon="20.4946373"/><trkpt lat="54.7071772" lon="20.4953555"/><trkpt lat="54.7071636" lon="20.495636"/><trkpt lat="54.7071458" lon="20.4959877"/><trkpt lat="54.7071038" lon="20.4964943"/><trkpt lat="54.7069828" lon="20.4980572"/><trkpt lat="54.7069664" lon="20.498053"/><trkpt lat="54.7069397" lon="20.4980459"/><trkpt lat="54.7068554" lon="20.4980278"/><trkpt lat="54.7068388" lon="20.4982969"/><trkpt lat="54.7067604" lon="20.4982757"/><trkpt lat="54.7067161" lon="20.4982629"/><trkpt lat="54.7066875" lon="20.4982589"/><trkpt lat="54.7066166" lon="20.498241"/><trkpt lat="54.7066007" lon="20.4982391"/><trkpt lat="54.7065082" lon="20.498218"/></trkseg></trk></gpx>