<?xml version="1.0" encoding="UTF-8"?><gpx version="1.1" creator="godune.ru" xmlns="http://www.topografix.com/GPX/1/1"><metadata><name>Остров Канта и музейная набережная</name></metadata><trk><name>Остров Канта и музейная набережная</name><trkseg><trkpt lat="54.7064785" lon="20.5114085"/><trkpt lat="54.7064839" lon="20.5113399"/><trkpt lat="54.7066736" lon="20.5113884"/><trkpt lat="54.7066967" lon="20.5113982"/><trkpt lat="54.7067143" lon="20.5114357"/><trkpt lat="54.7067153" lon="20.5114709"/><trkpt lat="54.7067118" lon="20.5115158"/><trkpt lat="54.7067535" lon="20.5115267"/><trkpt lat="54.7067149" lon="20.5120241"/><trkpt lat="54.706705" lon="20.5121184"/><trkpt lat="54.7066176" lon="20.5120965"/><trkpt lat="54.7065848" lon="20.5125127"/><trkpt lat="54.7065634" lon="20.5127852"/><trkpt lat="54.7064671" lon="20.5127708"/><trkpt lat="54.7065634" lon="20.5127852"/><trkpt lat="54.7065477" lon="20.5129852"/><trkpt lat="54.706492" lon="20.5130208"/><trkpt lat="54.7062929" lon="20.5129897"/><trkpt lat="54.7060291" lon="20.5129485"/><trkpt lat="54.7058436" lon="20.5129195"/><trkpt lat="54.7058141" lon="20.5132473"/><trkpt lat="54.7058008" lon="20.5133976"/><trkpt lat="54.7057954" lon="20.5134963"/><trkpt lat="54.7057839" lon="20.5136774"/><trkpt lat="54.7057725" lon="20.5138543"/><trkpt lat="54.7057603" lon="20.5140665"/><trkpt lat="54.7057612" lon="20.5141273"/><trkpt lat="54.7056836" lon="20.5141093"/><trkpt lat="54.7055729" lon="20.5141222"/><trkpt lat="54.7054523" lon="20.5141757"/><trkpt lat="54.7053157" lon="20.5142383"/><trkpt lat="54.7051708" lon="20.5143047"/><trkpt lat="54.7051114" lon="20.5143695"/><trkpt lat="54.7049774" lon="20.5145223"/><trkpt lat="54.7045602" lon="20.5149986"/><trkpt lat="54.7044477" lon="20.5151361"/><trkpt lat="54.7043851" lon="20.5152126"/><trkpt lat="54.7041535" lon="20.5153426"/><trkpt lat="54.7038907" lon="20.5153745"/><trkpt lat="54.7034825" lon="20.5153959"/><trkpt lat="54.7032986" lon="20.51538"/><trkpt lat="54.7032204" lon="20.5153614"/><trkpt lat="54.7029149" lon="20.5152889"/><trkpt lat="54.702749" lon="20.5152563"/><trkpt lat="54.7025122" lon="20.5151975"/><trkpt lat="54.7025052" lon="20.5152504"/><trkpt lat="54.7024617" lon="20.5152466"/><trkpt lat="54.7025052" lon="20.5152504"/><trkpt lat="54.7025122" lon="20.5151975"/><trkpt lat="54.702749" lon="20.5152563"/><trkpt lat="54.7029149" lon="20.5152889"/><trkpt lat="54.7032204" lon="20.5153614"/><trkpt lat="54.7032986" lon="20.51538"/><trkpt lat="54.7034825" lon="20.5153959"/><trkpt lat="54.7038907" lon="20.5153745"/><trkpt lat="54.7041535" lon="20.5153426"/><trkpt lat="54.7043851" lon="20.5152126"/><trkpt lat="54.7044477" lon="20.5151361"/><trkpt lat="54.7045602" lon="20.5149986"/><trkpt lat="54.7049774" lon="20.5145223"/><trkpt lat="54.7051114" lon="20.5143695"/><trkpt lat="54.7051708" lon="20.5143047"/><trkpt lat="54.7053157" lon="20.5142383"/><trkpt lat="54.7054523" lon="20.5141757"/><trkpt lat="54.7055729" lon="20.5141222"/><trkpt lat="54.7056836" lon="20.5141093"/><trkpt lat="54.7057612" lon="20.5141273"/><trkpt lat="54.7057603" lon="20.5140665"/><trkpt lat="54.7057725" lon="20.5138543"/><trkpt lat="54.7057839" lon="20.5136774"/><trkpt lat="54.7057954" lon="20.5134963"/><trkpt lat="54.7058008" lon="20.5133976"/><trkpt lat="54.7058141" lon="20.5132473"/><trkpt lat="54.7058436" lon="20.5129195"/><trkpt lat="54.7058561" lon="20.5127634"/><trkpt lat="54.7058801" lon="20.5124648"/><trkpt lat="54.7060244" lon="20.511959"/><trkpt lat="54.7062056" lon="20.51121"/><trkpt lat="54.7062704" lon="20.510998"/><trkpt lat="54.7063754" lon="20.5106546"/><trkpt lat="54.7063893" lon="20.5105642"/><trkpt lat="54.7064251" lon="20.5103674"/><trkpt lat="54.706512" lon="20.5099015"/><trkpt lat="54.7066277" lon="20.5092816"/><trkpt lat="54.7068703" lon="20.5079813"/><trkpt lat="54.7069172" lon="20.5077297"/><trkpt lat="54.706922" lon="20.5077042"/><trkpt lat="54.7069327" lon="20.5076386"/><trkpt lat="54.7069512" lon="20.5075255"/><trkpt lat="54.7071043" lon="20.5066515"/><trkpt lat="54.7071337" lon="20.5064359"/><trkpt lat="54.7072273" lon="20.5064738"/><trkpt lat="54.7073223" lon="20.5064765"/><trkpt lat="54.707351" lon="20.5064859"/><trkpt lat="54.7073596" lon="20.5064416"/><trkpt lat="54.7074973" lon="20.5057503"/><trkpt lat="54.7075057" lon="20.5057165"/><trkpt lat="54.7076713" lon="20.5058206"/><trkpt lat="54.7077706" lon="20.5053466"/><trkpt lat="54.7073874" lon="20.5050647"/><trkpt lat="54.7068644" lon="20.5046975"/><trkpt lat="54.7068403" lon="20.50466"/><trkpt lat="54.7067121" lon="20.5045718"/><trkpt lat="54.7066769" lon="20.5045128"/><trkpt lat="54.7066489" lon="20.504433"/><trkpt lat="54.7066441" lon="20.5043319"/><trkpt lat="54.7066526" lon="20.5041881"/><trkpt lat="54.7066613" lon="20.504031"/><trkpt lat="54.7066958" lon="20.5034573"/><trkpt lat="54.7067205" lon="20.5028338"/><trkpt lat="54.7067112" lon="20.5026273"/><trkpt lat="54.7066702" lon="20.5022289"/><trkpt lat="54.7066408" lon="20.5018474"/><trkpt lat="54.7066506" lon="20.5015395"/><trkpt lat="54.7066658" lon="20.5013292"/><trkpt lat="54.7067038" lon="20.5009502"/><trkpt lat="54.7066876" lon="20.5009451"/><trkpt lat="54.7064394" lon="20.5008742"/><trkpt lat="54.7062704" lon="20.5008637"/><trkpt lat="54.7064394" lon="20.5008742"/><trkpt lat="54.7066876" lon="20.5009451"/><trkpt lat="54.7067038" lon="20.5009502"/><trkpt lat="54.7066658" lon="20.5013292"/><trkpt lat="54.7066506" lon="20.5015395"/><trkpt lat="54.7066408" lon="20.5018474"/><trkpt lat="54.7066702" lon="20.5022289"/></trkseg></trk></gpx>