<?xml version="1.0" encoding="UTF-8"?><gpx version="1.1" creator="godune.ru" xmlns="http://www.topografix.com/GPX/1/1"><metadata><name>Светлогорск: от поезда к морю</name></metadata><trk><name>Светлогорск: от поезда к морю</name><trkseg><trkpt lat="54.9440549" lon="20.1470917"/><trkpt lat="54.9439989" lon="20.1471088"/><trkpt lat="54.9440327" lon="20.1474181"/><trkpt lat="54.9442363" lon="20.1491488"/><trkpt lat="54.9442591" lon="20.1496606"/><trkpt lat="54.9442397" lon="20.1501299"/><trkpt lat="54.9442112" lon="20.1508163"/><trkpt lat="54.9441336" lon="20.1529323"/><trkpt lat="54.9440671" lon="20.1530095"/><trkpt lat="54.9440618" lon="20.1531452"/><trkpt lat="54.943605" lon="20.1537384"/><trkpt lat="54.9430968" lon="20.1544019"/><trkpt lat="54.9431162" lon="20.1557506"/><trkpt lat="54.9431389" lon="20.1560694"/><trkpt lat="54.9432429" lon="20.1560651"/><trkpt lat="54.9433405" lon="20.1560609"/><trkpt lat="54.9440916" lon="20.1560034"/><trkpt lat="54.9440882" lon="20.1558265"/><trkpt lat="54.9442383" lon="20.1558112"/><trkpt lat="54.9443673" lon="20.1562536"/><trkpt lat="54.9447029" lon="20.1559561"/><trkpt lat="54.945097" lon="20.1555681"/><trkpt lat="54.9451247" lon="20.1555408"/><trkpt lat="54.9451894" lon="20.1554772"/><trkpt lat="54.9452786" lon="20.155236"/><trkpt lat="54.945342" lon="20.155196"/><trkpt lat="54.9453522" lon="20.1552443"/><trkpt lat="54.9453792" lon="20.1553714"/><trkpt lat="54.9458528" lon="20.1551195"/><trkpt lat="54.9459153" lon="20.1550888"/><trkpt lat="54.9458861" lon="20.1549033"/><trkpt lat="54.9458718" lon="20.1548052"/><trkpt lat="54.9464059" lon="20.1545456"/><trkpt lat="54.9464259" lon="20.1545359"/><trkpt lat="54.9464311" lon="20.154555"/><trkpt lat="54.9464385" lon="20.1545718"/><trkpt lat="54.9464477" lon="20.1545856"/><trkpt lat="54.9464584" lon="20.1545957"/><trkpt lat="54.94647" lon="20.1546019"/><trkpt lat="54.9464821" lon="20.1546037"/><trkpt lat="54.9464942" lon="20.1546011"/><trkpt lat="54.9465057" lon="20.1545943"/><trkpt lat="54.9465162" lon="20.1545834"/><trkpt lat="54.9465252" lon="20.1545689"/><trkpt lat="54.9465322" lon="20.1545515"/><trkpt lat="54.946537" lon="20.154532"/><trkpt lat="54.9465394" lon="20.1545111"/><trkpt lat="54.9465392" lon="20.1544898"/><trkpt lat="54.9465365" lon="20.154469"/><trkpt lat="54.9465314" lon="20.1544497"/><trkpt lat="54.9465241" lon="20.1544326"/><trkpt lat="54.9465149" lon="20.1544186"/><trkpt lat="54.9465043" lon="20.1544082"/><trkpt lat="54.9464926" lon="20.1544018"/><trkpt lat="54.9464804" lon="20.1543998"/><trkpt lat="54.9464683" lon="20.1544023"/><trkpt lat="54.9463617" lon="20.1536881"/><trkpt lat="54.94607" lon="20.1508872"/><trkpt lat="54.9459984" lon="20.1498997"/><trkpt lat="54.9459649" lon="20.1494239"/><trkpt lat="54.9458247" lon="20.1475402"/><trkpt lat="54.9457896" lon="20.147355"/><trkpt lat="54.9457649" lon="20.1472977"/><trkpt lat="54.9457635" lon="20.1472317"/><trkpt lat="54.9457004" lon="20.1472337"/><trkpt lat="54.9456694" lon="20.1473125"/><trkpt lat="54.9456288" lon="20.1474065"/><trkpt lat="54.9454764" lon="20.1473253"/><trkpt lat="54.9452946" lon="20.1473346"/><trkpt lat="54.94507" lon="20.1471856"/><trkpt lat="54.9448568" lon="20.1472084"/><trkpt lat="54.9447385" lon="20.1472211"/><trkpt lat="54.9443053" lon="20.1472995"/><trkpt lat="54.9442654" lon="20.1473073"/><trkpt lat="54.9440327" lon="20.1474181"/><trkpt lat="54.9439989" lon="20.1471088"/><trkpt lat="54.9440549" lon="20.1470917"/></trkseg></trk></gpx>