<?xml version="1.0" encoding="UTF-8"?><gpx version="1.1" creator="godune.ru" xmlns="http://www.topografix.com/GPX/1/1"><metadata><name>Танцующий лес: прогулка по тропе</name></metadata><trk><name>Танцующий лес: прогулка по тропе</name><trkseg><trkpt lat="55.1826063" lon="20.8593972"/><trkpt lat="55.182573" lon="20.8596027"/><trkpt lat="55.1822787" lon="20.8602275"/><trkpt lat="55.1820744" lon="20.8608667"/><trkpt lat="55.1819387" lon="20.8611862"/><trkpt lat="55.1814008" lon="20.8622191"/><trkpt lat="55.18124" lon="20.8625866"/><trkpt lat="55.1810885" lon="20.8629423"/><trkpt lat="55.1808489" lon="20.8625575"/><trkpt lat="55.1807431" lon="20.8623874"/><trkpt lat="55.1805189" lon="20.8620274"/><trkpt lat="55.1804419" lon="20.8619037"/><trkpt lat="55.1802663" lon="20.8616216"/><trkpt lat="55.180239" lon="20.8616717"/><trkpt lat="55.1800576" lon="20.8620035"/><trkpt lat="55.1799569" lon="20.86221"/><trkpt lat="55.1798637" lon="20.8624283"/><trkpt lat="55.1799569" lon="20.86221"/><trkpt lat="55.1800576" lon="20.8620035"/><trkpt lat="55.180239" lon="20.8616717"/><trkpt lat="55.1802663" lon="20.8616216"/><trkpt lat="55.1804419" lon="20.8619037"/><trkpt lat="55.1805189" lon="20.8620274"/><trkpt lat="55.1803696" lon="20.8623184"/><trkpt lat="55.1805189" lon="20.8620274"/><trkpt lat="55.1807431" lon="20.8623874"/><trkpt lat="55.1808489" lon="20.8625575"/><trkpt lat="55.1810885" lon="20.8629423"/><trkpt lat="55.1814" lon="20.8634427"/><trkpt lat="55.1821404" lon="20.8618442"/><trkpt lat="55.1821283" lon="20.8613144"/><trkpt lat="55.1820744" lon="20.8608667"/><trkpt lat="55.1822787" lon="20.8602275"/><trkpt lat="55.182573" lon="20.8596027"/><trkpt lat="55.1826063" lon="20.8593972"/></trkseg></trk></gpx>