<?xml version="1.0" encoding="UTF-8"?><gpx version="1.1" creator="godune.ru" xmlns="http://www.topografix.com/GPX/1/1"><metadata><name>От Королевских ворот к Преголе</name></metadata><trk><name>От Королевских ворот к Преголе</name><trkseg><trkpt lat="54.7135826" lon="20.536116"/><trkpt lat="54.713559" lon="20.5360192"/><trkpt lat="54.7135473" lon="20.5359325"/><trkpt lat="54.7135534" lon="20.5358894"/><trkpt lat="54.7134815" lon="20.535955"/><trkpt lat="54.7134489" lon="20.5359848"/><trkpt lat="54.7134427" lon="20.5359905"/><trkpt lat="54.7134256" lon="20.5360061"/><trkpt lat="54.7134026" lon="20.5360271"/><trkpt lat="54.7133715" lon="20.5360555"/><trkpt lat="54.7133188" lon="20.5361035"/><trkpt lat="54.713288" lon="20.5359797"/><trkpt lat="54.7132493" lon="20.5358245"/><trkpt lat="54.7131996" lon="20.5358971"/><trkpt lat="54.7131211" lon="20.5360121"/><trkpt lat="54.7128463" lon="20.5362433"/><trkpt lat="54.7125646" lon="20.536486"/><trkpt lat="54.7125135" lon="20.53653"/><trkpt lat="54.7122541" lon="20.5367414"/><trkpt lat="54.7118885" lon="20.5369765"/><trkpt lat="54.7118396" lon="20.5370027"/><trkpt lat="54.7118101" lon="20.5370185"/><trkpt lat="54.7117305" lon="20.5370611"/><trkpt lat="54.7113703" lon="20.5372156"/><trkpt lat="54.7112436" lon="20.5372421"/><trkpt lat="54.7110166" lon="20.5373063"/><trkpt lat="54.7108284" lon="20.5373664"/><trkpt lat="54.7106063" lon="20.5374406"/><trkpt lat="54.7101048" lon="20.5375684"/><trkpt lat="54.7099484" lon="20.5375618"/><trkpt lat="54.7099046" lon="20.5375401"/><trkpt lat="54.7098792" lon="20.5375275"/><trkpt lat="54.709776" lon="20.5375198"/><trkpt lat="54.7096833" lon="20.5375089"/><trkpt lat="54.7096367" lon="20.5375365"/><trkpt lat="54.7096467" lon="20.537852"/><trkpt lat="54.7096519" lon="20.5380316"/><trkpt lat="54.7096467" lon="20.537852"/><trkpt lat="54.7096367" lon="20.5375365"/><trkpt lat="54.7096676" lon="20.5370204"/><trkpt lat="54.7096448" lon="20.5368004"/><trkpt lat="54.7096567" lon="20.536481"/><trkpt lat="54.7096664" lon="20.5362808"/><trkpt lat="54.7093535" lon="20.5361239"/><trkpt lat="54.7089578" lon="20.5359255"/><trkpt lat="54.708932" lon="20.5351676"/><trkpt lat="54.7089214" lon="20.5348414"/><trkpt lat="54.7088433" lon="20.5348402"/><trkpt lat="54.7087676" lon="20.5348154"/><trkpt lat="54.7081212" lon="20.5343196"/><trkpt lat="54.7079568" lon="20.5341935"/><trkpt lat="54.7075808" lon="20.5339052"/><trkpt lat="54.7074874" lon="20.5338336"/><trkpt lat="54.7071868" lon="20.5336227"/><trkpt lat="54.7069812" lon="20.5334786"/><trkpt lat="54.7069397" lon="20.5334493"/><trkpt lat="54.7070926" lon="20.5321994"/><trkpt lat="54.707119" lon="20.5318427"/><trkpt lat="54.7071236" lon="20.5312794"/><trkpt lat="54.707146" lon="20.5311034"/><trkpt lat="54.7071964" lon="20.5307081"/><trkpt lat="54.7072952" lon="20.5294875"/><trkpt lat="54.7073122" lon="20.5292964"/><trkpt lat="54.7073654" lon="20.5286964"/><trkpt lat="54.7074697" lon="20.5273014"/><trkpt lat="54.7074909" lon="20.5270174"/><trkpt lat="54.7076148" lon="20.5252793"/><trkpt lat="54.7076571" lon="20.5246328"/><trkpt lat="54.7077084" lon="20.5240345"/><trkpt lat="54.7077125" lon="20.5239543"/><trkpt lat="54.707731" lon="20.5236217"/><trkpt lat="54.7077156" lon="20.5229672"/><trkpt lat="54.707776" lon="20.5225944"/><trkpt lat="54.7077915" lon="20.5224898"/><trkpt lat="54.7078008" lon="20.522353"/><trkpt lat="54.7078008" lon="20.5214947"/><trkpt lat="54.7077737" lon="20.5206693"/><trkpt lat="54.7077396" lon="20.5196319"/><trkpt lat="54.7077272" lon="20.5193281"/><trkpt lat="54.707714" lon="20.5187782"/><trkpt lat="54.7076891" lon="20.5179302"/><trkpt lat="54.7076807" lon="20.5169899"/><trkpt lat="54.7076847" lon="20.5168284"/><trkpt lat="54.7076869" lon="20.5167263"/><trkpt lat="54.7076846" lon="20.5162047"/><trkpt lat="54.7076768" lon="20.515858"/><trkpt lat="54.7076636" lon="20.515453"/><trkpt lat="54.7076311" lon="20.5150654"/><trkpt lat="54.7076043" lon="20.5147769"/><trkpt lat="54.7076014" lon="20.5147448"/><trkpt lat="54.7075755" lon="20.5147335"/><trkpt lat="54.7073004" lon="20.5146805"/><trkpt lat="54.7072054" lon="20.5146631"/><trkpt lat="54.7069245" lon="20.5146118"/><trkpt lat="54.7069134" lon="20.5146078"/><trkpt lat="54.7068744" lon="20.5145937"/><trkpt lat="54.7068644" lon="20.5145918"/><trkpt lat="54.7068605" lon="20.5145911"/><trkpt lat="54.7066584" lon="20.5145708"/><trkpt lat="54.706613" lon="20.5145752"/><trkpt lat="54.7065698" lon="20.5145794"/><trkpt lat="54.7065548" lon="20.5145881"/><trkpt lat="54.7064875" lon="20.5146275"/><trkpt lat="54.7064398" lon="20.5146269"/><trkpt lat="54.7062709" lon="20.5146698"/><trkpt lat="54.7060753" lon="20.5147335"/><trkpt lat="54.7059726" lon="20.5147693"/><trkpt lat="54.7058947" lon="20.5147965"/><trkpt lat="54.7058126" lon="20.5148328"/><trkpt lat="54.7056995" lon="20.5148944"/><trkpt lat="54.7056432" lon="20.5149317"/><trkpt lat="54.7056042" lon="20.5149575"/><trkpt lat="54.7055646" lon="20.5150004"/><trkpt lat="54.7055251" lon="20.5150473"/><trkpt lat="54.7054894" lon="20.5150748"/><trkpt lat="54.7053236" lon="20.5152251"/><trkpt lat="54.705297" lon="20.5152402"/><trkpt lat="54.7052673" lon="20.5152572"/><trkpt lat="54.7052341" lon="20.5152726"/><trkpt lat="54.7051967" lon="20.5152934"/><trkpt lat="54.7051863" lon="20.5153055"/><trkpt lat="54.70517" lon="20.515329"/><trkpt lat="54.7051581" lon="20.515356"/><trkpt lat="54.7051557" lon="20.5153615"/><trkpt lat="54.7051462" lon="20.5153933"/><trkpt lat="54.7051361" lon="20.5154212"/><trkpt lat="54.705081" lon="20.515477"/><trkpt lat="54.7050296" lon="20.5155291"/><trkpt lat="54.7050203" lon="20.5155227"/><trkpt lat="54.7050117" lon="20.5155194"/><trkpt lat="54.7050035" lon="20.5155176"/><trkpt lat="54.7049722" lon="20.5155338"/><trkpt lat="54.7049611" lon="20.5154948"/><trkpt lat="54.7049467" lon="20.515444"/><trkpt lat="54.7049346" lon="20.5153996"/><trkpt lat="54.7049295" lon="20.5153811"/><trkpt lat="54.704913" lon="20.5153208"/><trkpt lat="54.7048992" lon="20.5152731"/><trkpt lat="54.7048495" lon="20.5151014"/><trkpt lat="54.7045538" lon="20.5154169"/><trkpt lat="54.7044973" lon="20.5152659"/><trkpt lat="54.7044477" lon="20.5151361"/><trkpt lat="54.7043851" lon="20.5152126"/><trkpt lat="54.7041535" lon="20.5153426"/><trkpt lat="54.7038907" lon="20.5153745"/><trkpt lat="54.7034825" lon="20.5153959"/><trkpt lat="54.7032986" lon="20.51538"/><trkpt lat="54.7032204" lon="20.5153614"/><trkpt lat="54.7029149" lon="20.5152889"/><trkpt lat="54.702749" lon="20.5152563"/><trkpt lat="54.7025122" lon="20.5151975"/><trkpt lat="54.7025052" lon="20.5152504"/><trkpt lat="54.7024617" lon="20.5152466"/><trkpt lat="54.7025052" lon="20.5152504"/><trkpt lat="54.7025122" lon="20.5151975"/><trkpt lat="54.702749" lon="20.5152563"/><trkpt lat="54.7029149" lon="20.5152889"/><trkpt lat="54.7032204" lon="20.5153614"/><trkpt lat="54.7032986" lon="20.51538"/><trkpt lat="54.7034825" lon="20.5153959"/><trkpt lat="54.7038907" lon="20.5153745"/><trkpt lat="54.7041535" lon="20.5153426"/><trkpt lat="54.7043851" lon="20.5152126"/><trkpt lat="54.7044477" lon="20.5151361"/><trkpt lat="54.7045602" lon="20.5149986"/><trkpt lat="54.7049774" lon="20.5145223"/><trkpt lat="54.7051114" lon="20.5143695"/><trkpt lat="54.7051708" lon="20.5143047"/><trkpt lat="54.7053157" lon="20.5142383"/><trkpt lat="54.7054523" lon="20.5141757"/><trkpt lat="54.7055729" lon="20.5141222"/><trkpt lat="54.7056836" lon="20.5141093"/><trkpt lat="54.7057612" lon="20.5141273"/><trkpt lat="54.7057603" lon="20.5140665"/><trkpt lat="54.7057725" lon="20.5138543"/><trkpt lat="54.7057839" lon="20.5136774"/><trkpt lat="54.7057954" lon="20.5134963"/><trkpt lat="54.7058008" lon="20.5133976"/><trkpt lat="54.7058141" lon="20.5132473"/><trkpt lat="54.7058436" lon="20.5129195"/><trkpt lat="54.7058561" lon="20.5127634"/><trkpt lat="54.7058801" lon="20.5124648"/><trkpt lat="54.7060244" lon="20.511959"/><trkpt lat="54.7060573" lon="20.5119668"/><trkpt lat="54.7060668" lon="20.5119691"/><trkpt lat="54.706233" lon="20.5112976"/><trkpt lat="54.7062552" lon="20.5112815"/><trkpt lat="54.706315" lon="20.5112968"/><trkpt lat="54.7064839" lon="20.5113399"/><trkpt lat="54.7064785" lon="20.5114085"/><trkpt lat="54.7064839" lon="20.5113399"/><trkpt lat="54.7064967" lon="20.5111757"/><trkpt lat="54.7066256" lon="20.5111944"/><trkpt lat="54.7066165" lon="20.5111591"/><trkpt lat="54.7066" lon="20.5111211"/><trkpt lat="54.7063754" lon="20.5106546"/><trkpt lat="54.7063893" lon="20.5105642"/><trkpt lat="54.7064251" lon="20.5103674"/><trkpt lat="54.706512" lon="20.5099015"/><trkpt lat="54.7066277" lon="20.5092816"/><trkpt lat="54.7068703" lon="20.5079813"/><trkpt lat="54.7069172" lon="20.5077297"/><trkpt lat="54.706922" lon="20.5077042"/><trkpt lat="54.7069327" lon="20.5076386"/><trkpt lat="54.7069512" lon="20.5075255"/><trkpt lat="54.7071043" lon="20.5066515"/><trkpt lat="54.7071337" lon="20.5064359"/><trkpt lat="54.7072273" lon="20.5064738"/><trkpt lat="54.7073223" lon="20.5064765"/><trkpt lat="54.707351" lon="20.5064859"/><trkpt lat="54.7073596" lon="20.5064416"/><trkpt lat="54.7074973" lon="20.5057503"/><trkpt lat="54.7075057" lon="20.5057165"/><trkpt lat="54.7076713" lon="20.5058206"/><trkpt lat="54.7077706" lon="20.5053466"/><trkpt lat="54.7073874" lon="20.5050647"/><trkpt lat="54.7068644" lon="20.5046975"/><trkpt lat="54.7068403" lon="20.50466"/><trkpt lat="54.7067121" lon="20.5045718"/><trkpt lat="54.7066769" lon="20.5045128"/><trkpt lat="54.7066489" lon="20.504433"/><trkpt lat="54.7066441" lon="20.5043319"/><trkpt lat="54.7067096" lon="20.5043315"/><trkpt lat="54.7067583" lon="20.5043245"/><trkpt lat="54.7068447" lon="20.5028406"/><trkpt lat="54.7067689" lon="20.5018472"/><trkpt lat="54.7067805" lon="20.5014175"/><trkpt lat="54.7068219" lon="20.5009838"/><trkpt lat="54.7069577" lon="20.4995596"/><trkpt lat="54.7068943" lon="20.4995355"/><trkpt lat="54.7068826" lon="20.4996662"/></trkseg></trk></gpx>