<?xml version="1.0" encoding="UTF-8"?><gpx version="1.1" creator="godune.ru" xmlns="http://www.topografix.com/GPX/1/1"><metadata><name>Высота Эфа: к дюнам и обратно</name></metadata><trk><name>Высота Эфа: к дюнам и обратно</name><trkseg><trkpt lat="55.2217807" lon="20.8928143"/><trkpt lat="55.2211218" lon="20.8943336"/><trkpt lat="55.2206811" lon="20.8955054"/><trkpt lat="55.2205821" lon="20.8958341"/><trkpt lat="55.2205815" lon="20.89588"/><trkpt lat="55.2207239" lon="20.8964067"/><trkpt lat="55.2207525" lon="20.8968939"/><trkpt lat="55.2208213" lon="20.8976204"/><trkpt lat="55.2209242" lon="20.8981291"/><trkpt lat="55.2209931" lon="20.8988379"/><trkpt lat="55.2210121" lon="20.8994385"/><trkpt lat="55.2210744" lon="20.9006983"/><trkpt lat="55.2210957" lon="20.9010638"/><trkpt lat="55.2211206" lon="20.9015057"/><trkpt lat="55.2211634" lon="20.9020591"/><trkpt lat="55.2212396" lon="20.9022932"/><trkpt lat="55.2212454" lon="20.902426"/><trkpt lat="55.2212563" lon="20.9025729"/><trkpt lat="55.2212744" lon="20.9027064"/><trkpt lat="55.2213452" lon="20.9035792"/><trkpt lat="55.2213589" lon="20.9037482"/><trkpt lat="55.2213911" lon="20.9040988"/><trkpt lat="55.2214434" lon="20.9046683"/><trkpt lat="55.2215296" lon="20.9056063"/><trkpt lat="55.2215571" lon="20.9059062"/><trkpt lat="55.2215203" lon="20.906073"/><trkpt lat="55.2214972" lon="20.9061778"/><trkpt lat="55.2214088" lon="20.9063257"/><trkpt lat="55.2213233" lon="20.9064314"/><trkpt lat="55.2212001" lon="20.9064285"/><trkpt lat="55.2212038" lon="20.9063537"/><trkpt lat="55.2211809" lon="20.9063486"/><trkpt lat="55.2211807" lon="20.9062899"/><trkpt lat="55.2211809" lon="20.9063486"/><trkpt lat="55.2212038" lon="20.9063537"/><trkpt lat="55.2212001" lon="20.9064285"/><trkpt lat="55.2213233" lon="20.9064314"/><trkpt lat="55.2214088" lon="20.9063257"/><trkpt lat="55.2214972" lon="20.9061778"/><trkpt lat="55.2215203" lon="20.906073"/><trkpt lat="55.2215571" lon="20.9059062"/><trkpt lat="55.2215296" lon="20.9056063"/><trkpt lat="55.2214434" lon="20.9046683"/><trkpt lat="55.2213911" lon="20.9040988"/><trkpt lat="55.2213589" lon="20.9037482"/><trkpt lat="55.2213452" lon="20.9035792"/><trkpt lat="55.2212744" lon="20.9027064"/><trkpt lat="55.2212563" lon="20.9025729"/><trkpt lat="55.2212454" lon="20.902426"/><trkpt lat="55.2212396" lon="20.9022932"/><trkpt lat="55.2211634" lon="20.9020591"/><trkpt lat="55.2211206" lon="20.9015057"/><trkpt lat="55.2210957" lon="20.9010638"/><trkpt lat="55.2210744" lon="20.9006983"/><trkpt lat="55.2210121" lon="20.8994385"/><trkpt lat="55.2209931" lon="20.8988379"/><trkpt lat="55.2209242" lon="20.8981291"/><trkpt lat="55.2208213" lon="20.8976204"/><trkpt lat="55.2207525" lon="20.8968939"/><trkpt lat="55.2207239" lon="20.8964067"/><trkpt lat="55.2205815" lon="20.89588"/><trkpt lat="55.2205821" lon="20.8958341"/><trkpt lat="55.2206811" lon="20.8955054"/><trkpt lat="55.2211218" lon="20.8943336"/><trkpt lat="55.2217807" lon="20.8928143"/></trkseg></trk></gpx>