<?xml version="1.0" encoding="UTF-8"?><gpx version="1.1" creator="godune.ru" xmlns="http://www.topografix.com/GPX/1/1"><metadata><name>Зеленоградск-2: от поезда к морю</name></metadata><trk><name>Зеленоградск-2: от поезда к морю</name><trkseg><trkpt lat="54.9507477" lon="20.4531259"/><trkpt lat="54.9509704" lon="20.453131"/><trkpt lat="54.9510238" lon="20.4531322"/><trkpt lat="54.9510293" lon="20.4528776"/><trkpt lat="54.9510192" lon="20.4525143"/><trkpt lat="54.9509344" lon="20.4519586"/><trkpt lat="54.9510503" lon="20.4517478"/><trkpt lat="54.9510815" lon="20.4517799"/><trkpt lat="54.9511159" lon="20.4517996"/><trkpt lat="54.9511519" lon="20.4518062"/><trkpt lat="54.9511814" lon="20.4518015"/><trkpt lat="54.9512099" lon="20.451788"/><trkpt lat="54.9512366" lon="20.451766"/><trkpt lat="54.9512731" lon="20.4517323"/><trkpt lat="54.9513126" lon="20.4517115"/><trkpt lat="54.9513537" lon="20.4517043"/><trkpt lat="54.9513953" lon="20.4517111"/><trkpt lat="54.9514353" lon="20.4517319"/><trkpt lat="54.9514723" lon="20.451766"/><trkpt lat="54.9515237" lon="20.4518015"/><trkpt lat="54.9515774" lon="20.451824"/><trkpt lat="54.9516325" lon="20.451833"/><trkpt lat="54.9516842" lon="20.4518291"/><trkpt lat="54.9517351" lon="20.4518132"/><trkpt lat="54.9517844" lon="20.4517858"/><trkpt lat="54.9518312" lon="20.4517472"/><trkpt lat="54.9518698" lon="20.451721"/><trkpt lat="54.9519101" lon="20.4517039"/><trkpt lat="54.9519513" lon="20.4516962"/><trkpt lat="54.9519921" lon="20.4516979"/><trkpt lat="54.9520323" lon="20.4517087"/><trkpt lat="54.9520715" lon="20.4517284"/><trkpt lat="54.9521182" lon="20.4517704"/><trkpt lat="54.9521677" lon="20.4518009"/><trkpt lat="54.9522192" lon="20.4518195"/><trkpt lat="54.9522716" lon="20.4518258"/><trkpt lat="54.9523241" lon="20.4518196"/><trkpt lat="54.9523771" lon="20.4518004"/><trkpt lat="54.952428" lon="20.4517685"/><trkpt lat="54.9524758" lon="20.4517245"/><trkpt lat="54.9525205" lon="20.451656"/><trkpt lat="54.9525705" lon="20.4516266"/><trkpt lat="54.9526229" lon="20.4516251"/><trkpt lat="54.952659" lon="20.4516241"/><trkpt lat="54.9527209" lon="20.4516223"/><trkpt lat="54.9529317" lon="20.4516145"/><trkpt lat="54.9530181" lon="20.4516116"/><trkpt lat="54.9531335" lon="20.4516078"/><trkpt lat="54.9532991" lon="20.4516023"/><trkpt lat="54.9533467" lon="20.4516054"/><trkpt lat="54.9535947" lon="20.4516306"/><trkpt lat="54.9536193" lon="20.4516331"/><trkpt lat="54.9539709" lon="20.4527733"/><trkpt lat="54.9541265" lon="20.4532138"/><trkpt lat="54.9543288" lon="20.4529509"/><trkpt lat="54.9545849" lon="20.4527142"/><trkpt lat="54.9543288" lon="20.4529509"/><trkpt lat="54.9541265" lon="20.4532138"/><trkpt lat="54.9539709" lon="20.4527733"/><trkpt lat="54.9536193" lon="20.4516331"/><trkpt lat="54.9535947" lon="20.4516306"/><trkpt lat="54.9533467" lon="20.4516054"/><trkpt lat="54.9532991" lon="20.4516023"/><trkpt lat="54.9531335" lon="20.4516078"/><trkpt lat="54.9530181" lon="20.4516116"/><trkpt lat="54.9529317" lon="20.4516145"/><trkpt lat="54.9527209" lon="20.4516223"/><trkpt lat="54.952659" lon="20.4516241"/><trkpt lat="54.9526229" lon="20.4516251"/><trkpt lat="54.9525705" lon="20.4516266"/><trkpt lat="54.9525205" lon="20.451656"/><trkpt lat="54.9524758" lon="20.4517245"/><trkpt lat="54.952428" lon="20.4517685"/><trkpt lat="54.9523771" lon="20.4518004"/><trkpt lat="54.9523241" lon="20.4518196"/><trkpt lat="54.9522716" lon="20.4518258"/><trkpt lat="54.9522192" lon="20.4518195"/><trkpt lat="54.9521677" lon="20.4518009"/><trkpt lat="54.9521182" lon="20.4517704"/><trkpt lat="54.9520715" lon="20.4517284"/><trkpt lat="54.9520323" lon="20.4517087"/><trkpt lat="54.9519921" lon="20.4516979"/><trkpt lat="54.9519513" lon="20.4516962"/><trkpt lat="54.9519101" lon="20.4517039"/><trkpt lat="54.9518698" lon="20.451721"/><trkpt lat="54.9518312" lon="20.4517472"/><trkpt lat="54.9517844" lon="20.4517858"/><trkpt lat="54.9517351" lon="20.4518132"/><trkpt lat="54.9516842" lon="20.4518291"/><trkpt lat="54.9516325" lon="20.451833"/><trkpt lat="54.9515774" lon="20.451824"/><trkpt lat="54.9515237" lon="20.4518015"/><trkpt lat="54.9514723" lon="20.451766"/><trkpt lat="54.9514353" lon="20.4517319"/><trkpt lat="54.9513953" lon="20.4517111"/><trkpt lat="54.9513537" lon="20.4517043"/><trkpt lat="54.9513126" lon="20.4517115"/><trkpt lat="54.9512731" lon="20.4517323"/><trkpt lat="54.9512366" lon="20.451766"/><trkpt lat="54.9512099" lon="20.451788"/><trkpt lat="54.9511814" lon="20.4518015"/><trkpt lat="54.9511519" lon="20.4518062"/><trkpt lat="54.9511159" lon="20.4517996"/><trkpt lat="54.9510815" lon="20.4517799"/><trkpt lat="54.9510503" lon="20.4517478"/><trkpt lat="54.9509344" lon="20.4519586"/><trkpt lat="54.9510192" lon="20.4525143"/><trkpt lat="54.9510293" lon="20.4528776"/><trkpt lat="54.9510238" lon="20.4531322"/><trkpt lat="54.9509704" lon="20.453131"/><trkpt lat="54.9507477" lon="20.4531259"/></trkseg></trk></gpx>