{"type":"FeatureCollection","features":[{"type":"Feature","properties":{"kind":"coastline","name":"","osm":"way/4217983"},"geometry":{"type":"LineString","coordinates":[[20.928059,55.255499],[20.925658,55.253691],[20.92452,55.25254],[20.92384,55.25177],[20.9234,55.25152],[20.922705,55.250804],[20.92205,55.25025],[20.921121,55.249479],[20.920775,55.249259],[20.920478,55.248964],[20.919991,55.248525],[20.919327,55.248347],[20.919333,55.247973],[20.918225,55.246967],[20.91758,55.24639],[20.91713,55.24614],[20.91668,55.24562],[20.915702,55.24511],[20.915054,55.244554],[20.914296,55.243903],[20.913176,55.243006],[20.911814,55.242256],[20.91064,55.24126],[20.91042,55.24075],[20.90997,55.2405],[20.90952,55.23998],[20.90908,55.23973],[20.90863,55.23921],[20.90729,55.23819],[20.90639,55.23742],[20.90505,55.23639],[20.904417,55.236052],[20.904068,55.235566],[20.90281,55.2346],[20.90226,55.234231],[20.90147,55.23357],[20.90036,55.232826],[20.899487,55.232124],[20.89812,55.23101],[20.897,55.22999],[20.896202,55.229439],[20.895183,55.228528],[20.893443,55.227229],[20.89231,55.22652],[20.89163,55.22588],[20.891265,55.225524],[20.89052,55.22486],[20.88962,55.22409],[20.888805,55.223517],[20.88839,55.223072],[20.887287,55.222162],[20.886507,55.221415],[20.885569,55.220736],[20.884777,55.220125],[20.88449,55.219966],[20.883751,55.219116],[20.88314,55.2187],[20.8827,55.21845],[20.88225,55.21794],[20.8818,55.21742],[20.88136,55.21717],[20.880988,55.216946],[20.880539,55.216619],[20.880087,55.216124],[20.879787,55.215731],[20.879162,55.215364],[20.878731,55.214997],[20.878491,55.214751],[20.878138,55.214437],[20.877495,55.214099],[20.876888,55.213535],[20.876655,55.213204],[20.876238,55.212845],[20.875856,55.212487],[20.875086,55.211943],[20.874634,55.211685],[20.87421,55.21127],[20.87376,55.21101],[20.87331,55.2105],[20.87287,55.20999],[20.87243,55.20973],[20.871979,55.209243],[20.8713,55.20896],[20.870954,55.208416],[20.870523,55.208037],[20.87041,55.207852],[20.870135,55.207526],[20.869796,55.207171],[20.869393,55.206881],[20.869012,55.20651],[20.868419,55.206058],[20.86751,55.20537],[20.867317,55.205111],[20.866737,55.204656],[20.866137,55.204297],[20.86573,55.20383],[20.865212,55.203555],[20.864739,55.203144],[20.864399,55.202737],[20.864131,55.202342],[20.863615,55.201987],[20.863255,55.201592],[20.86293,55.201338],[20.862386,55.200972],[20.861793,55.200448],[20.8612,55.200077],[20.86081,55.19973],[20.86036,55.19947],[20.859829,55.199036],[20.85925,55.1987],[20.858819,55.198226],[20.85835,55.19793],[20.858085,55.197509],[20.857696,55.197122],[20.857315,55.196827],[20.856863,55.196356],[20.856227,55.195965],[20.855824,55.195678],[20.855521,55.195283],[20.854941,55.194908],[20.854454,55.194505],[20.853818,55.193981],[20.8535,55.193671],[20.853246,55.193425],[20.852829,55.193183],[20.852215,55.192566],[20.85166,55.19228],[20.85144,55.19178],[20.85122,55.19126],[20.85032,55.19114],[20.84987,55.19088],[20.84943,55.19062],[20.84853,55.19049],[20.84831,55.18998],[20.84786,55.18947],[20.84742,55.18896],[20.84697,55.1887],[20.84653,55.18844],[20.84608,55.18793],[20.84562,55.18767],[20.8452,55.18691],[20.84474,55.18665],[20.8443,55.18614],[20.84385,55.18589],[20.8434,55.18562],[20.84296,55.18537],[20.84251,55.18511],[20.84206,55.18485],[20.841393,55.184453],[20.84095,55.18408],[20.840621,55.183795],[20.840345,55.183557],[20.84004,55.183273],[20.839726,55.182923],[20.839501,55.182727],[20.839261,55.182577],[20.83872,55.1819],[20.83827,55.18165],[20.83783,55.18139],[20.83738,55.18113],[20.83693,55.181],[20.83671,55.1805],[20.836297,55.18024],[20.835865,55.179806],[20.835388,55.17946],[20.834645,55.178809],[20.833635,55.178118],[20.832718,55.177269],[20.832138,55.176918],[20.83181,55.176718],[20.830905,55.176095],[20.827199,55.17304],[20.825835,55.17202],[20.82467,55.17125],[20.824,55.17073],[20.823396,55.17023],[20.820474,55.168155],[20.81976,55.16766],[20.81943,55.16746],[20.81798,55.16638],[20.81752,55.16612],[20.817256,55.165757],[20.81619,55.1651],[20.8153,55.16434],[20.81486,55.16407],[20.81441,55.16381],[20.813344,55.163145],[20.812114,55.162752],[20.811994,55.162389],[20.810016,55.161367],[20.809693,55.161021],[20.809275,55.160807],[20.809026,55.160509],[20.808356,55.15997],[20.807896,55.159428],[20.80683,55.15842],[20.80638,55.15817],[20.80594,55.15791],[20.803455,55.155683],[20.799626,55.152958],[20.79836,55.15201],[20.79703,55.15098],[20.794907,55.149626],[20.79346,55.14841],[20.79324,55.14816],[20.792534,55.147951],[20.79168,55.14739],[20.791301,55.147029],[20.79079,55.14662],[20.789726,55.145691],[20.788597,55.144724],[20.786573,55.143405],[20.784754,55.14212],[20.784139,55.141596],[20.78277,55.14046],[20.78188,55.13968],[20.78144,55.13917],[20.780886,55.138735],[20.78055,55.1384],[20.7801,55.13789],[20.779322,55.137323],[20.77877,55.13686],[20.77832,55.13661],[20.777871,55.13621],[20.777196,55.135852],[20.776939,55.135577],[20.77654,55.13532],[20.776071,55.135004],[20.77565,55.13455],[20.77521,55.13405],[20.77476,55.13378],[20.77454,55.13327],[20.77365,55.13327],[20.77343,55.13275],[20.77298,55.1325],[20.77254,55.13224],[20.77209,55.13173],[20.77165,55.13121],[20.7712,55.13096],[20.77076,55.13044],[20.77032,55.12993],[20.76987,55.12942],[20.76943,55.12891],[20.76898,55.12839],[20.76876,55.12788],[20.76787,55.12775],[20.767481,55.127529],[20.76743,55.1275],[20.76698,55.12724],[20.76653,55.12711],[20.76631,55.12659],[20.76587,55.12608],[20.76543,55.12557],[20.76498,55.1253],[20.76454,55.1248],[20.76408,55.12454],[20.76366,55.12403],[20.7632,55.12377],[20.76276,55.12326],[20.76231,55.123],[20.76187,55.12249],[20.76142,55.12197],[20.76098,55.12146],[20.76054,55.1212],[20.76009,55.12095],[20.75965,55.12043],[20.7592,55.12018],[20.75876,55.11966],[20.75831,55.11915],[20.75787,55.11889],[20.75742,55.11864],[20.75698,55.11812],[20.75653,55.11787],[20.75609,55.1171],[20.75565,55.11684],[20.7552,55.11658],[20.75476,55.11633],[20.75431,55.11581],[20.75387,55.11556],[20.75365,55.11504],[20.75275,55.11504],[20.75253,55.11454],[20.75209,55.11402],[20.75165,55.1135],[20.75165,55.11325],[20.75165,55.11299],[20.7512,55.11248],[20.75076,55.11222],[20.75032,55.11171],[20.74987,55.11145],[20.74943,55.11094],[20.74898,55.11043],[20.74854,55.11017],[20.7481,55.1094],[20.74765,55.10914],[20.74721,55.10863],[20.74677,55.10837],[20.74632,55.10786],[20.7461,55.10735],[20.74521,55.10722],[20.74476,55.10709],[20.74454,55.10657],[20.7441,55.10632],[20.74365,55.10555],[20.74321,55.10529],[20.74277,55.10477],[20.74232,55.10452],[20.74211,55.10375],[20.74121,55.10375],[20.74099,55.10298],[20.74055,55.10272],[20.7401,55.10247],[20.73966,55.10221],[20.73921,55.10195],[20.73877,55.10144],[20.73855,55.10093],[20.73765,55.10093],[20.73743,55.1004],[20.73699,55.10016],[20.73655,55.09964],[20.73633,55.09913],[20.73543,55.09913],[20.73521,55.09861],[20.73477,55.0981],[20.73432,55.09784],[20.733923,55.097413],[20.733468,55.0972],[20.73299,55.09682],[20.73255,55.0963],[20.7321,55.09579],[20.73189,55.09528],[20.731522,55.095022],[20.731,55.09451],[20.730463,55.094255],[20.72989,55.09374],[20.729585,55.093635],[20.72877,55.09348],[20.72855,55.09297],[20.72811,55.09271],[20.72766,55.0922],[20.72744,55.09168],[20.726931,55.091392],[20.72633,55.09091],[20.72589,55.09066],[20.725645,55.090338],[20.72522,55.08989],[20.724689,55.089592],[20.72437,55.089335],[20.72388,55.089041],[20.723,55.08873],[20.722888,55.088498],[20.72233,55.08809],[20.72189,55.08783],[20.72145,55.08732],[20.72122,55.08706],[20.720581,55.086829],[20.72011,55.08654],[20.71967,55.08628],[20.71922,55.08603],[20.71878,55.08552],[20.71833,55.08526],[20.71789,55.085],[20.71745,55.08449],[20.717,55.08423],[20.71656,55.08397],[20.71634,55.08346],[20.715809,55.083101],[20.71523,55.08269],[20.71501,55.08243],[20.714414,55.082022],[20.714037,55.081645],[20.713723,55.081317],[20.713331,55.080971],[20.71256,55.08064],[20.71212,55.08038],[20.711511,55.07991],[20.71101,55.07961],[20.710559,55.079103],[20.710255,55.078751],[20.7099,55.07832],[20.709454,55.07798],[20.70879,55.07768],[20.70835,55.07742],[20.7079,55.07717],[20.70746,55.07691],[20.707158,55.076584],[20.70679,55.07627],[20.70658,55.07601],[20.705689,55.075765],[20.70544,55.075471],[20.70501,55.07524],[20.70457,55.07498],[20.704118,55.074638],[20.703685,55.074332],[20.703192,55.074108],[20.70278,55.0737],[20.702394,55.073462],[20.701709,55.073146],[20.701434,55.072852],[20.701267,55.072603],[20.700668,55.072322],[20.70013,55.0719],[20.699651,55.071635],[20.69902,55.07138],[20.698667,55.070917],[20.698237,55.070656],[20.69791,55.07036],[20.697223,55.069952],[20.6968,55.06946],[20.696446,55.069189],[20.696251,55.068856],[20.695767,55.068592],[20.69525,55.0683],[20.694806,55.067908],[20.694276,55.067635],[20.693828,55.067343],[20.69325,55.06714],[20.6928,55.06689],[20.692307,55.066569],[20.69103,55.06586],[20.69058,55.0656],[20.690334,55.06534],[20.6888,55.06419],[20.68747,55.06341],[20.685982,55.06245],[20.685084,55.061691],[20.683505,55.06059],[20.681895,55.059121],[20.68149,55.05879],[20.680951,55.05838],[20.68053,55.05806],[20.68016,55.05776],[20.679744,55.057526],[20.67927,55.05725],[20.678413,55.056738],[20.677596,55.056442],[20.67638,55.05583],[20.67594,55.05557],[20.675468,55.055247],[20.674612,55.054852],[20.67327,55.05416],[20.67216,55.05364],[20.671764,55.05339],[20.67038,55.05261],[20.66994,55.05235],[20.66972,55.0521],[20.66772,55.05081],[20.66717,55.05056],[20.66671,55.050028],[20.664466,55.04881],[20.66262,55.04785],[20.661774,55.047286],[20.66084,55.04682],[20.6604,55.04669],[20.659262,55.046066],[20.6584,55.04541],[20.657033,55.04476],[20.6564,55.04451],[20.655202,55.04391],[20.65495,55.04373],[20.65374,55.04309],[20.65296,55.04258],[20.65152,55.0418],[20.65041,55.041073],[20.650014,55.040793],[20.648882,55.039819],[20.64753,55.03897],[20.64642,55.0382],[20.64598,55.03795],[20.645518,55.037715],[20.644584,55.03712],[20.6431,55.036226],[20.641408,55.034961],[20.63999,55.03409],[20.638792,55.033479],[20.637198,55.032704],[20.636198,55.032163],[20.634993,55.031418],[20.634044,55.031025],[20.632569,55.030054],[20.63193,55.029754],[20.630434,55.029239],[20.628577,55.028022],[20.627574,55.027455],[20.626047,55.02647],[20.62502,55.025913],[20.624433,55.025555],[20.62336,55.02482],[20.62293,55.024497],[20.62159,55.023774],[20.620607,55.0234],[20.61981,55.022807],[20.6187,55.02198],[20.618671,55.02196],[20.61759,55.02121],[20.616425,55.02044],[20.61494,55.01941],[20.614622,55.019112],[20.61361,55.01838],[20.61317,55.01813],[20.61272,55.01787],[20.611202,55.016878],[20.610005,55.01621],[20.609482,55.015867],[20.60829,55.015227],[20.606858,55.014233],[20.606486,55.014038],[20.606158,55.013793],[20.605652,55.013504],[20.605345,55.013273],[20.604794,55.012974],[20.604195,55.012628],[20.603446,55.012116]]}},{"type":"Feature","properties":{"kind":"coastline","name":"","osm":"way/143983644"},"geometry":{"type":"LineString","coordinates":[[20.528268,54.958437],[20.529614,54.960744],[20.530773,54.961724],[20.530552,54.960714],[20.528728,54.958384],[20.529286,54.958149],[20.530052,54.958244],[20.531074,54.958557],[20.532188,54.958735],[20.53345,54.959013],[20.534191,54.959099],[20.534829,54.959387],[20.535106,54.959769],[20.535113,54.960178],[20.534714,54.960729],[20.534385,54.961607],[20.534093,54.961775],[20.533671,54.96193],[20.533523,54.96211],[20.53358,54.962355],[20.533588,54.962778],[20.534164,54.963075],[20.534428,54.963391],[20.534338,54.964973],[20.533821,54.966106],[20.533346,54.966562],[20.533069,54.967284],[20.532746,54.967544],[20.532202,54.967681],[20.531818,54.967844],[20.531614,54.96793],[20.531253,54.968099],[20.531157,54.968315],[20.53101,54.968565],[20.531187,54.968533],[20.531477,54.968239],[20.53169,54.968119],[20.532086,54.968128],[20.532638,54.968194],[20.533112,54.96838],[20.533383,54.969026],[20.533621,54.970534],[20.534329,54.97198],[20.534115,54.972179],[20.534812,54.972542],[20.535144,54.97287],[20.535396,54.973434],[20.536003,54.974454],[20.536514,54.974713],[20.536877,54.975046],[20.537619,54.975325],[20.538022,54.975569],[20.538081,54.975828],[20.537866,54.976097],[20.537449,54.976326],[20.537104,54.9766],[20.537033,54.9768],[20.537141,54.976877],[20.537246,54.976951],[20.537467,54.977069],[20.537602,54.977475],[20.537963,54.977723],[20.538577,54.977765],[20.539186,54.977757],[20.539312,54.977954],[20.539641,54.978179],[20.54042,54.978297],[20.541159,54.978401],[20.541899,54.978391],[20.54252,54.97831],[20.542811,54.978145],[20.54341,54.97844],[20.544294,54.978676],[20.54541,54.978708],[20.546251,54.978667],[20.546976,54.978746],[20.548021,54.978477],[20.548587,54.978223],[20.54966,54.977982],[20.55099,54.97821],[20.552724,54.978522],[20.55473,54.97882],[20.557179,54.979522],[20.559164,54.979734],[20.56034,54.980252],[20.562118,54.98053],[20.563736,54.980679],[20.565333,54.981127],[20.567094,54.98139],[20.569321,54.981698],[20.572101,54.98239],[20.574775,54.982761],[20.575576,54.983177],[20.579761,54.984423],[20.582681,54.986035],[20.583555,54.9863],[20.584387,54.986898],[20.585206,54.987659],[20.585832,54.98804],[20.58601,54.988311],[20.58606,54.988948],[20.586742,54.990197],[20.58792,54.991449],[20.589799,54.992968],[20.590978,54.993259],[20.590832,54.993594],[20.592223,54.994],[20.593199,54.99509],[20.594264,54.995819],[20.595265,54.996203],[20.596536,54.996245],[20.597299,54.997238],[20.598736,54.99799],[20.599793,54.998841],[20.600558,54.999274],[20.600762,54.99982],[20.600716,55.000587],[20.60078,55.001444],[20.600688,55.001541],[20.600421,55.00154],[20.600305,55.001645],[20.600416,55.001776],[20.600691,55.002086],[20.600799,55.002263],[20.600953,55.002333],[20.601167,55.002431],[20.601483,55.002395],[20.6015,55.00228],[20.60107,55.00195],[20.601209,55.00186],[20.601679,55.001955],[20.602201,55.002473],[20.603044,55.002855],[20.605229,55.003529],[20.606889,55.004358],[20.609089,55.004998],[20.611078,55.005396],[20.611318,55.005556],[20.611417,55.005632],[20.611522,55.005639],[20.611744,55.00575],[20.611958,55.005769],[20.612074,55.005725],[20.612203,55.005704],[20.612353,55.005727],[20.612514,55.00578],[20.612555,55.005895],[20.612757,55.005948],[20.613067,55.005977],[20.61336,55.005926],[20.61357,55.005867],[20.61384,55.005921],[20.6141,55.005991],[20.614234,55.006095],[20.614311,55.006244],[20.614326,55.006372],[20.614426,55.006383],[20.614687,55.006023],[20.615635,55.006106],[20.615735,55.006075],[20.615888,55.006056],[20.61591,55.006009],[20.61601,55.006013],[20.616026,55.006079],[20.616194,55.00616],[20.617267,55.006254],[20.617802,55.006551],[20.617251,55.006896],[20.617491,55.007036],[20.618065,55.006689],[20.618468,55.006769],[20.618604,55.006798],[20.618762,55.00683],[20.618935,55.006836],[20.619158,55.006889],[20.619245,55.006941],[20.619434,55.00717],[20.619441,55.007177],[20.619449,55.007187],[20.619456,55.007195],[20.619491,55.007238],[20.619518,55.00727],[20.61959,55.007357],[20.619649,55.007428],[20.619702,55.007492],[20.619723,55.007517],[20.619743,55.007541],[20.619756,55.007557],[20.61999,55.007839],[20.620757,55.008301],[20.621014,55.008975],[20.620828,55.009022],[20.62077,55.009018],[20.620069,55.009228],[20.620285,55.009812],[20.62049,55.009924],[20.620555,55.01018],[20.620359,55.010266],[20.620038,55.011221],[20.619738,55.011498],[20.61972,55.01228],[20.619792,55.012349],[20.61974,55.012572],[20.619977,55.013099],[20.620027,55.013393],[20.6202,55.013607],[20.620333,55.013663],[20.620287,55.013901],[20.620343,55.014069],[20.620567,55.014182],[20.620595,55.014347],[20.620538,55.014452],[20.620595,55.014547],[20.62073,55.014588],[20.6207,55.014827],[20.620787,55.014931],[20.620777,55.015168],[20.621177,55.015535],[20.621266,55.01547],[20.621218,55.015386],[20.621023,55.01533],[20.621022,55.015289],[20.621475,55.015207],[20.621577,55.015388],[20.621669,55.015372],[20.621742,55.015473],[20.621985,55.015462],[20.622124,55.015661],[20.622581,55.015806],[20.622973,55.016105],[20.624054,55.016298],[20.624273,55.016412],[20.624515,55.016518],[20.625989,55.017178],[20.626312,55.017259],[20.626462,55.017386],[20.626391,55.017496],[20.626574,55.017803],[20.626658,55.017847],[20.626867,55.018219],[20.626945,55.018302],[20.627108,55.018525],[20.627563,55.018825],[20.627708,55.019114],[20.627712,55.019231],[20.627715,55.019326],[20.627776,55.019462],[20.627816,55.019494],[20.627809,55.019519],[20.627881,55.019589],[20.627893,55.019646],[20.627986,55.019675],[20.62804,55.01972],[20.628337,55.019849],[20.628271,55.019906],[20.628391,55.019973],[20.628507,55.020038],[20.628668,55.020098],[20.628802,55.020104],[20.629057,55.020259],[20.629454,55.020352],[20.629674,55.020585],[20.629803,55.020678],[20.630695,55.021096],[20.630585,55.021214],[20.630579,55.02136],[20.630664,55.021505],[20.631085,55.021835],[20.631504,55.021873],[20.631464,55.022043],[20.631519,55.022219],[20.631739,55.022354],[20.631985,55.022435],[20.631996,55.022436],[20.632464,55.022496],[20.632646,55.022796],[20.633015,55.023138],[20.633416,55.023253],[20.633558,55.023276],[20.633655,55.023353],[20.633741,55.023422],[20.633753,55.023528],[20.633776,55.023557],[20.63376,55.02358],[20.633819,55.023646],[20.633845,55.023647],[20.633836,55.023676],[20.633858,55.023705],[20.633933,55.023724],[20.633944,55.023805],[20.633986,55.023876],[20.634034,55.02391],[20.634093,55.023908],[20.63415,55.023965],[20.634206,55.023975],[20.634154,55.024012],[20.634197,55.024098],[20.634312,55.024135],[20.634412,55.024341],[20.634527,55.024383],[20.634577,55.024547],[20.634872,55.0248],[20.635189,55.025077],[20.635365,55.025339],[20.635552,55.025668],[20.635876,55.025783],[20.635795,55.02601],[20.635837,55.026234],[20.636575,55.026677],[20.636724,55.02673],[20.636685,55.026813],[20.63672,55.027013],[20.637011,55.027372],[20.637259,55.027391],[20.637525,55.027634],[20.637864,55.027682],[20.637747,55.027769],[20.637947,55.027966],[20.638239,55.027971],[20.638174,55.028082],[20.638255,55.028189],[20.638305,55.028354],[20.63915,55.028648],[20.639589,55.028703],[20.63987,55.028772],[20.640426,55.028824],[20.64069,55.028932],[20.6407,55.02922],[20.64092,55.02936],[20.641472,55.029443],[20.64226,55.03012],[20.64248,55.03025],[20.6427,55.03038],[20.643279,55.030576],[20.643606,55.030625],[20.643805,55.030742],[20.643743,55.03085],[20.643789,55.030962],[20.643866,55.031061],[20.644175,55.03124],[20.644325,55.031237],[20.644463,55.031449],[20.644647,55.031484],[20.644652,55.03158],[20.64485,55.031662],[20.645014,55.031805],[20.645339,55.031917],[20.646095,55.032007],[20.646256,55.032083],[20.646874,55.032209],[20.647211,55.032341],[20.647483,55.032498],[20.647657,55.032645],[20.647985,55.032732],[20.648259,55.032741],[20.648644,55.032657],[20.649504,55.032901],[20.649903,55.032893],[20.650025,55.032983],[20.650246,55.033041],[20.650448,55.033032],[20.651013,55.033142],[20.651302,55.033424],[20.652299,55.033666],[20.652542,55.033657],[20.652763,55.033682],[20.653441,55.033947],[20.654259,55.034096],[20.654555,55.034131],[20.654661,55.034148],[20.654752,55.034156],[20.654827,55.034144],[20.654876,55.034119],[20.654949,55.034103],[20.655184,55.034171],[20.655424,55.034166],[20.655767,55.034234],[20.656164,55.034422],[20.656282,55.034522],[20.658022,55.034725],[20.658995,55.035164],[20.6596,55.03517],[20.660257,55.035479],[20.660528,55.035748],[20.660633,55.036074],[20.660957,55.036288],[20.66138,55.036428],[20.661703,55.036728],[20.662396,55.036924],[20.662573,55.03723],[20.662803,55.037449],[20.66322,55.037555],[20.663437,55.037565],[20.663818,55.037792],[20.664543,55.037906],[20.66575,55.038362],[20.666094,55.038617],[20.666581,55.038782],[20.666801,55.038921],[20.66692,55.039127],[20.667224,55.039297],[20.667556,55.039362],[20.6679,55.03962],[20.668624,55.039788],[20.668827,55.039939],[20.66903,55.040244],[20.670201,55.041309],[20.670405,55.041559],[20.670816,55.041739],[20.67213,55.042067],[20.672714,55.042387],[20.673263,55.042506],[20.673842,55.042842],[20.674822,55.043092],[20.675166,55.043331],[20.675692,55.043533],[20.675912,55.043811],[20.676207,55.043976],[20.6767,55.04418],[20.677885,55.044675],[20.67943,55.045332],[20.680974,55.045668],[20.68137,55.04585],[20.682127,55.04621],[20.683257,55.046513],[20.683504,55.04668],[20.68448,55.04702],[20.685568,55.047528],[20.686769,55.048075],[20.687156,55.048256],[20.687617,55.048558],[20.688652,55.049166],[20.689285,55.04952],[20.69057,55.050187],[20.69174,55.05073],[20.692068,55.050969],[20.693397,55.051478],[20.693869,55.051721],[20.694308,55.051896],[20.6947,55.05204],[20.695929,55.05268],[20.697379,55.053434],[20.69789,55.053647],[20.699773,55.054578],[20.701214,55.055339],[20.702073,55.056073],[20.7027,55.05641],[20.70425,55.0573],[20.704754,55.057521],[20.705424,55.057716],[20.706325,55.0582],[20.706842,55.058414],[20.707049,55.058696],[20.707338,55.058972],[20.708646,55.060077],[20.70981,55.06078],[20.71003,55.06091],[20.710722,55.061352],[20.712031,55.06203],[20.712679,55.062253],[20.713161,55.062636],[20.713415,55.062669],[20.713709,55.062872],[20.71403,55.062992],[20.71425,55.06335],[20.715007,55.063732],[20.71529,55.064046],[20.715811,55.064738],[20.71625,55.06502],[20.71669,55.06553],[20.717365,55.066175],[20.719045,55.067767],[20.719511,55.068198],[20.719704,55.068186],[20.71979,55.06836],[20.720799,55.069315],[20.72112,55.06964],[20.72134,55.06977],[20.72158,55.0699],[20.722407,55.07077],[20.72334,55.07144],[20.72467,55.07221],[20.725265,55.072582],[20.726026,55.073022],[20.726401,55.07313],[20.727233,55.073768],[20.727925,55.074319],[20.728155,55.074339],[20.72912,55.07504],[20.73112,55.0762],[20.731174,55.076351],[20.731823,55.076755],[20.73201,55.07722],[20.732101,55.077362],[20.73267,55.07812],[20.73311,55.07863],[20.73356,55.07916],[20.734,55.07966],[20.734499,55.080197],[20.73556,55.08082],[20.73578,55.08094],[20.736,55.08107],[20.73622,55.0812],[20.73666,55.08171],[20.73689,55.08184],[20.738244,55.082614],[20.739201,55.083162],[20.74231,55.084812],[20.743013,55.085251],[20.74355,55.08571],[20.74378,55.08583],[20.74422,55.08634],[20.74466,55.08711],[20.74489,55.08724],[20.74511,55.08737],[20.74555,55.08814],[20.74577,55.08826],[20.74667,55.08839],[20.74689,55.0889],[20.74711,55.08904],[20.748,55.08929],[20.74821,55.08942],[20.74867,55.08994],[20.74889,55.09006],[20.75023,55.09019],[20.75045,55.09071],[20.75067,55.09084],[20.75201,55.09097],[20.75223,55.09148],[20.75245,55.09161],[20.75334,55.09187],[20.75356,55.09199],[20.75379,55.09212],[20.75401,55.09225],[20.75423,55.09238],[20.75445,55.09251],[20.75468,55.09264],[20.7549,55.09277],[20.75512,55.09289],[20.75534,55.09302],[20.75557,55.09354],[20.75646,55.09354],[20.75668,55.09431],[20.7569,55.09443],[20.75712,55.09456],[20.75756,55.09533],[20.75779,55.09545],[20.75801,55.09559],[20.75845,55.09661],[20.75889,55.09738],[20.75933,55.09841],[20.75977,55.09943],[20.76021,55.1002],[20.76044,55.10033],[20.76066,55.10046],[20.7611,55.10097],[20.76133,55.1011],[20.76155,55.10123],[20.76177,55.10136],[20.76199,55.10149],[20.76244,55.102],[20.76266,55.10213],[20.76355,55.10239],[20.76377,55.10252],[20.76399,55.10304],[20.76489,55.10316],[20.7651,55.10329],[20.76554,55.10406],[20.76577,55.10418],[20.766,55.10431],[20.76644,55.10508],[20.76666,55.10522],[20.76688,55.10534],[20.76733,55.10585],[20.76755,55.10598],[20.76777,55.10611],[20.768,55.10624],[20.76822,55.10637],[20.76866,55.10688],[20.7689,55.10701],[20.76911,55.10714],[20.76955,55.10765],[20.76976,55.10778],[20.77,55.10791],[20.77044,55.10841],[20.77066,55.10855],[20.77089,55.10868],[20.77133,55.10919],[20.77177,55.1097],[20.772,55.10983],[20.77222,55.10996],[20.77244,55.11009],[20.77266,55.11022],[20.77289,55.11034],[20.77311,55.11047],[20.77356,55.11099],[20.77378,55.11111],[20.774,55.11124],[20.77422,55.11137],[20.77444,55.1115],[20.77489,55.11201],[20.77511,55.11214],[20.77533,55.11227],[20.77578,55.11278],[20.776,55.11291],[20.77622,55.11304],[20.77667,55.11355],[20.77711,55.11407],[20.77733,55.11419],[20.77755,55.11432],[20.77777,55.11445],[20.778,55.11458],[20.77844,55.11509],[20.77889,55.11561],[20.77911,55.11573],[20.77933,55.11586],[20.77956,55.11598],[20.77978,55.11612],[20.78,55.11625],[20.7809,55.11638],[20.781613,55.116824],[20.782233,55.117156],[20.782582,55.117385],[20.782948,55.117626],[20.783475,55.11783],[20.783417,55.118003],[20.783687,55.118265],[20.784269,55.1187],[20.785587,55.119339],[20.788465,55.120637],[20.78914,55.121],[20.78958,55.12151],[20.7898,55.12164],[20.79003,55.12177],[20.79047,55.12228],[20.79091,55.1228],[20.79136,55.12331],[20.7918,55.12382],[20.79225,55.12434],[20.79269,55.12485],[20.79291,55.12498],[20.79381,55.12562],[20.7947,55.12613],[20.79559,55.12626],[20.79581,55.12639],[20.796304,55.126715],[20.79693,55.12703],[20.79715,55.12716],[20.79737,55.12729],[20.79759,55.12742],[20.79782,55.12755],[20.79804,55.12768],[20.79826,55.1278],[20.79916,55.12806],[20.79938,55.12819],[20.7996,55.12832],[20.8005,55.12858],[20.80139,55.12883],[20.80161,55.12896],[20.80183,55.1291],[20.80228,55.1291],[20.80317,55.1291],[20.80341,55.12922],[20.80362,55.12935],[20.80451,55.12961],[20.80496,55.12961],[20.80541,55.12961],[20.80718,55.12987],[20.81121,55.13013],[20.81211,55.13039],[20.81233,55.13052],[20.81411,55.13129],[20.81434,55.13141],[20.81523,55.13167],[20.81545,55.1318],[20.81568,55.13193],[20.81657,55.13219],[20.81746,55.13232],[20.81969,55.13296],[20.821111,55.133464],[20.82371,55.1345],[20.8246,55.13476],[20.8255,55.13502],[20.82572,55.13515],[20.826455,55.135546],[20.82683,55.1358],[20.82706,55.13592],[20.82729,55.13604],[20.8275,55.13617],[20.82773,55.1363],[20.82795,55.13643],[20.82817,55.13656],[20.82839,55.13669],[20.828765,55.136832],[20.82951,55.13707],[20.82973,55.1372],[20.82996,55.13733],[20.83018,55.13746],[20.8304,55.13758],[20.8313,55.13784],[20.83152,55.13797],[20.83174,55.1381],[20.83264,55.13836],[20.83487,55.13913],[20.83576,55.13938],[20.83598,55.13951],[20.836068,55.13956],[20.83621,55.13964],[20.8371,55.1399],[20.83799,55.14017],[20.83822,55.14028],[20.83844,55.14041],[20.83933,55.14067],[20.84023,55.14093],[20.84045,55.14106],[20.84067,55.14117],[20.84089,55.14131],[20.84111,55.14144],[20.84134,55.14157],[20.84156,55.1417],[20.84179,55.14183],[20.84201,55.14195],[20.8429,55.14221],[20.84313,55.14235],[20.84335,55.14247],[20.84357,55.1426],[20.8438,55.14272],[20.84402,55.14285],[20.84424,55.14298],[20.84446,55.14311],[20.84469,55.14324],[20.84491,55.14337],[20.84513,55.14349],[20.84603,55.14375],[20.84692,55.14401],[20.84714,55.14414],[20.84737,55.14427],[20.84871,55.1444],[20.849115,55.144735],[20.849406,55.144868],[20.85005,55.14517],[20.850434,55.1455],[20.850608,55.145577],[20.85088,55.145699],[20.851054,55.145888],[20.85183,55.14619],[20.852392,55.146464],[20.853403,55.146802],[20.853488,55.146995],[20.85385,55.147174],[20.854692,55.147425],[20.855256,55.147848],[20.85584,55.148043],[20.856424,55.14837],[20.856864,55.14876],[20.857161,55.148857],[20.858398,55.149873],[20.858949,55.150125],[20.859031,55.150334],[20.859664,55.150481],[20.859894,55.150846],[20.860214,55.151192],[20.860601,55.151334],[20.861503,55.152212],[20.861824,55.152464],[20.862535,55.152843],[20.863052,55.153277],[20.86352,55.153108],[20.863705,55.153237],[20.863111,55.153655],[20.862282,55.153907],[20.862267,55.153911],[20.86074,55.1544],[20.859747,55.154666],[20.85937,55.154767],[20.858999,55.154871],[20.858841,55.154949],[20.858546,55.15497],[20.857819,55.155242],[20.85716,55.15542],[20.856877,55.15555],[20.856495,55.155726],[20.856081,55.1559],[20.855947,55.155979],[20.855921,55.155994],[20.855794,55.155961],[20.855753,55.155951],[20.85566,55.155818],[20.855562,55.155706],[20.855497,55.155597],[20.855559,55.155491],[20.855648,55.15537],[20.855825,55.15531],[20.856006,55.155248],[20.856129,55.155192],[20.856201,55.155105],[20.856229,55.154972],[20.856351,55.154866],[20.856451,55.15477],[20.856449,55.154726],[20.856338,55.15472],[20.856161,55.154823],[20.855863,55.154913],[20.855389,55.154929],[20.854866,55.155317],[20.854839,55.155395],[20.855874,55.156602],[20.855719,55.156647],[20.854859,55.156605],[20.854004,55.156774],[20.853858,55.156749],[20.853685,55.156632],[20.853331,55.156649],[20.853037,55.156753],[20.852818,55.156906],[20.852382,55.157113],[20.852072,55.157258],[20.851937,55.157305],[20.851444,55.157637],[20.851055,55.157993],[20.851034,55.158011],[20.850397,55.158593],[20.849999,55.159351],[20.84999,55.159371],[20.849621,55.159848],[20.849617,55.159859],[20.849253,55.160784],[20.849025,55.161466],[20.84899,55.16191],[20.848941,55.162301],[20.848904,55.162645],[20.84886,55.16309],[20.84886,55.16335],[20.84911,55.164382],[20.849404,55.165152],[20.84952,55.16527],[20.84974,55.16565],[20.84995,55.166087],[20.850279,55.166429],[20.85129,55.167176],[20.851942,55.167655],[20.852842,55.16823],[20.85438,55.169089],[20.855336,55.169668],[20.857258,55.170735],[20.857742,55.171211],[20.85845,55.17168],[20.85867,55.17181],[20.85889,55.17194],[20.859786,55.172413],[20.860096,55.172654],[20.86068,55.172979],[20.86168,55.173536],[20.86247,55.17412],[20.862971,55.174482],[20.86343,55.174748],[20.863754,55.175086],[20.86466,55.175657],[20.86498,55.175978],[20.86545,55.176221],[20.86565,55.176473],[20.866943,55.177313],[20.868278,55.178178],[20.869303,55.178776],[20.870706,55.179623],[20.87209,55.180642],[20.872591,55.180981],[20.873103,55.181467],[20.87375,55.182032],[20.874351,55.182425],[20.874758,55.182853],[20.875088,55.183128],[20.87518,55.183338],[20.875246,55.183422],[20.876116,55.186206],[20.87685,55.187477],[20.877974,55.18889],[20.878049,55.188978],[20.878117,55.189088],[20.878156,55.189205],[20.878336,55.189388],[20.878401,55.189581],[20.878481,55.189967],[20.87876,55.190549],[20.879334,55.191443],[20.87994,55.192212],[20.880407,55.192781],[20.880911,55.193265],[20.881716,55.193838],[20.88259,55.19456],[20.883298,55.19516],[20.884146,55.195782],[20.88435,55.195935],[20.884865,55.19625],[20.885417,55.196639],[20.887137,55.197879],[20.887649,55.198173],[20.887992,55.198427],[20.888325,55.198648],[20.888497,55.198807],[20.888706,55.19896],[20.88899,55.199162],[20.88958,55.199517],[20.890074,55.19986],[20.890691,55.200261],[20.891098,55.200555],[20.891506,55.200754],[20.892059,55.201149],[20.892391,55.201434],[20.894531,55.202927],[20.895129,55.203283],[20.895602,55.203558],[20.897232,55.204255],[20.897747,55.204466],[20.898546,55.204825],[20.899394,55.205498],[20.899837,55.205873],[20.900209,55.206392],[20.900792,55.206828],[20.901132,55.207301],[20.901784,55.20762],[20.901784,55.207669],[20.901749,55.207837],[20.902178,55.208544],[20.902409,55.209107],[20.902806,55.20952],[20.90317,55.209802],[20.903433,55.210056],[20.903783,55.210667],[20.904542,55.211939],[20.905003,55.212558],[20.905416,55.212968],[20.906151,55.213595],[20.906762,55.21402],[20.907068,55.214366],[20.90754,55.214816],[20.907905,55.215263],[20.908286,55.215753],[20.908527,55.216147],[20.908769,55.216558],[20.909042,55.217047],[20.909252,55.217528],[20.909659,55.218219],[20.909895,55.218706],[20.910158,55.219195],[20.91026,55.219676],[20.910437,55.220046],[20.910614,55.220254],[20.910791,55.220474],[20.911003,55.220655],[20.911081,55.22081],[20.910965,55.221063],[20.910936,55.221269],[20.910957,55.221471],[20.911104,55.221891],[20.91152,55.222241],[20.912006,55.222702],[20.912327,55.22296],[20.912341,55.223051],[20.912341,55.223134],[20.912356,55.223226],[20.912735,55.223483],[20.912895,55.223849],[20.913026,55.22399],[20.912982,55.224148],[20.913085,55.224206],[20.913099,55.224356],[20.91339,55.224497],[20.913609,55.224755],[20.913711,55.22483],[20.914848,55.225328],[20.915299,55.22547],[20.915372,55.225544],[20.915547,55.22576],[20.916785,55.226292],[20.917295,55.226508],[20.917412,55.22655],[20.917747,55.226683],[20.917834,55.226766],[20.918038,55.226924],[20.918155,55.226982],[20.918723,55.227132],[20.91884,55.22724],[20.918956,55.227381],[20.919991,55.227846],[20.920792,55.22812],[20.920909,55.228162],[20.921156,55.228395],[20.921375,55.228519],[20.922657,55.22888],[20.92281,55.228959],[20.923014,55.229108],[20.923414,55.229225],[20.923611,55.22927],[20.923655,55.22942],[20.923662,55.229466],[20.923786,55.229565],[20.923961,55.22964],[20.924077,55.229698],[20.924339,55.229864],[20.924784,55.23008],[20.924849,55.230105],[20.925097,55.230241],[20.925243,55.230321],[20.925469,55.230454],[20.925696,55.230508],[20.925877,55.23055],[20.926154,55.230625],[20.926336,55.230733],[20.926911,55.230957],[20.927426,55.23115],[20.928173,55.231324],[20.929386,55.231714],[20.930085,55.231905],[20.931163,55.232195],[20.931877,55.232387],[20.932052,55.232403],[20.932358,55.232512],[20.932489,55.232561],[20.933597,55.233027],[20.935126,55.233525],[20.935607,55.2337],[20.935753,55.233791],[20.935869,55.233857],[20.936583,55.234082],[20.936744,55.234165],[20.936977,55.234248],[20.937953,55.234481],[20.938113,55.234497],[20.939264,55.23478],[20.939774,55.235079],[20.940182,55.235444],[20.940357,55.235652],[20.940721,55.235876],[20.940809,55.236134],[20.940809,55.236217],[20.940969,55.23645],[20.941537,55.237015],[20.941668,55.237073],[20.942018,55.237214],[20.94247,55.237538],[20.94263,55.237588],[20.942863,55.237638],[20.942965,55.237812],[20.943082,55.237879],[20.943446,55.237995],[20.943694,55.238236],[20.943781,55.238419],[20.943825,55.238493],[20.944189,55.238709],[20.944553,55.239017],[20.944553,55.239091]]}},{"type":"Feature","properties":{"kind":"road","name":"","osm":"way/23703769","highway":"primary","access":"","foot":""},"geometry":{"type":"LineString","coordinates":[[20.890979,55.221803],[20.890882,55.221717],[20.890348,55.221242],[20.889512,55.220541],[20.887966,55.219149],[20.887162,55.218607],[20.882015,55.214307],[20.881364,55.213567],[20.877699,55.209343],[20.874231,55.205352],[20.872401,55.203241],[20.871814,55.202801],[20.871163,55.202376],[20.870653,55.202148],[20.870026,55.201884],[20.869802,55.201718],[20.869639,55.201529],[20.86872,55.200491],[20.868606,55.200304],[20.868568,55.200024],[20.868546,55.199676],[20.868548,55.199431],[20.868377,55.199205],[20.868178,55.198906],[20.866055,55.196888],[20.865292,55.196157],[20.864888,55.195781],[20.864353,55.195319],[20.863315,55.194606],[20.862662,55.193981],[20.862184,55.193433],[20.861565,55.192758],[20.860143,55.191771],[20.859444,55.191058],[20.858705,55.190223],[20.858574,55.189947],[20.858482,55.189348],[20.858424,55.189093],[20.858251,55.1888],[20.858003,55.188437],[20.857793,55.188085],[20.857564,55.187519],[20.857294,55.186996],[20.856817,55.186413],[20.856231,55.185672],[20.855747,55.185059],[20.855191,55.184475],[20.854936,55.184189],[20.854507,55.183886],[20.853698,55.183302],[20.853147,55.182753],[20.852982,55.182597],[20.852572,55.182209],[20.851555,55.18082],[20.850734,55.179718],[20.85009,55.179088],[20.849348,55.178449],[20.84798,55.177374],[20.845368,55.175646],[20.842354,55.173688],[20.840958,55.172833],[20.839314,55.171905],[20.835203,55.169166],[20.834893,55.168748],[20.834616,55.168342],[20.834153,55.167577],[20.834114,55.167459],[20.834107,55.167313],[20.834173,55.167021],[20.834291,55.16671],[20.834449,55.16646],[20.834929,55.165968],[20.83776,55.163504],[20.83812,55.16319],[20.843121,55.158722]]}},{"type":"Feature","properties":{"kind":"road","name":"","osm":"way/39379286","highway":"footway","access":"","foot":""},"geometry":{"type":"LineString","coordinates":[[20.894334,55.221122],[20.895505,55.220681],[20.895834,55.220582],[20.89588,55.220582],[20.896407,55.220724]]}},{"type":"Feature","properties":{"kind":"road","name":"","osm":"way/39379337","highway":"footway","access":"","foot":""},"geometry":{"type":"LineString","coordinates":[[20.891541,55.222239],[20.889822,55.222907],[20.889726,55.222936],[20.889581,55.222967],[20.889444,55.222987],[20.889367,55.223007]]}},{"type":"Feature","properties":{"kind":"road","name":"","osm":"way/79498893","highway":"footway","access":"","foot":""},"geometry":{"type":"LineString","coordinates":[[20.901265,55.220772],[20.901248,55.220804],[20.901161,55.220883],[20.901064,55.221096]]}},{"type":"Feature","properties":{"kind":"sand","name":"дюна Стародеревенская","osm":"way/79498901"},"geometry":{"type":"Polygon","coordinates":[[[20.906279,55.215192],[20.907606,55.216706],[20.909864,55.21992],[20.908692,55.220996],[20.903672,55.221017],[20.899787,55.220442],[20.900179,55.21966],[20.900227,55.219564],[20.899915,55.219125],[20.897442,55.218916],[20.895067,55.217294],[20.893435,55.216037],[20.894479,55.215192],[20.906279,55.215192]]]}},{"type":"Feature","properties":{"kind":"road","name":"","osm":"way/79590212","highway":"footway","access":"","foot":""},"geometry":{"type":"LineString","coordinates":[[20.902573,55.221256],[20.902706,55.221274],[20.903579,55.221345],[20.903748,55.221359],[20.904099,55.221391],[20.904668,55.221443],[20.905606,55.22153],[20.905906,55.221557],[20.906073,55.22152],[20.906178,55.221497]]}},{"type":"Feature","properties":{"kind":"road","name":"","osm":"way/79590216","highway":"steps","access":"","foot":""},"geometry":{"type":"LineString","coordinates":[[20.901161,55.220883],[20.900966,55.220882],[20.900876,55.220882]]}},{"type":"Feature","properties":{"kind":"sand","name":"","osm":"way/80378247"},"geometry":{"type":"Polygon","coordinates":[[[20.884777,55.220125],[20.885456,55.219831],[20.889187,55.22302],[20.894036,55.226842],[20.893532,55.227171],[20.89335,55.227171],[20.89231,55.22652],[20.89163,55.22588],[20.891265,55.225524],[20.89052,55.22486],[20.88962,55.22409],[20.888805,55.223517],[20.88839,55.223072],[20.887287,55.222162],[20.886507,55.221415],[20.885569,55.220736],[20.884777,55.220125]]]}},{"type":"Feature","properties":{"kind":"water","name":"","osm":"way/143983720"},"geometry":{"type":"Polygon","coordinates":[[[20.915881,55.226016],[20.915785,55.225977],[20.915486,55.225935],[20.915115,55.22583],[20.915022,55.225789],[20.914754,55.225853],[20.914672,55.225812],[20.914744,55.225765],[20.914754,55.225706],[20.914641,55.2257],[20.914538,55.22573],[20.914476,55.225783],[20.914507,55.225953],[20.914548,55.226006],[20.914796,55.226217],[20.915249,55.226411],[20.915383,55.226623],[20.915486,55.226646],[20.915651,55.226746],[20.915881,55.226825],[20.915881,55.226016]]]}},{"type":"Feature","properties":{"kind":"sand","name":"","osm":"way/441715025"},"geometry":{"type":"Polygon","coordinates":[[[20.906905,55.221308],[20.907275,55.221347],[20.908014,55.221344],[20.908392,55.221507],[20.908723,55.221486],[20.909306,55.221244],[20.909871,55.221137],[20.911081,55.22081],[20.911003,55.220655],[20.910791,55.220474],[20.910614,55.220254],[20.910437,55.220046],[20.91026,55.219676],[20.910158,55.219195],[20.909895,55.218706],[20.909659,55.218219],[20.909252,55.217528],[20.909042,55.217047],[20.908769,55.216558],[20.908527,55.216147],[20.908286,55.215753],[20.907905,55.215263],[20.907847,55.215192],[20.893594,55.215192],[20.893209,55.215548],[20.892325,55.216207],[20.892627,55.21651],[20.89286,55.216744],[20.893493,55.216953],[20.893294,55.217543],[20.893713,55.218002],[20.893998,55.217798],[20.894453,55.217663],[20.894614,55.217785],[20.894367,55.217956],[20.894668,55.218045],[20.89559,55.218036],[20.896819,55.218045],[20.89662,55.218155],[20.895885,55.218247],[20.89551,55.218324],[20.895967,55.218673],[20.896089,55.219061],[20.896266,55.219232],[20.896793,55.219233],[20.897275,55.219511],[20.897967,55.219569],[20.898257,55.219232],[20.899604,55.219233],[20.900215,55.21941],[20.899915,55.21968],[20.899025,55.220035],[20.898092,55.220249],[20.897677,55.220083],[20.897384,55.220255],[20.897634,55.220343],[20.898671,55.220347],[20.899604,55.220421],[20.899561,55.220788],[20.90043,55.220855],[20.90175,55.221045],[20.90307,55.221192],[20.90454,55.221253],[20.905484,55.221277],[20.906106,55.221296],[20.906567,55.221149],[20.906905,55.221308]]]}},{"type":"Feature","properties":{"kind":"green","name":"","osm":"way/541323736"},"geometry":{"type":"Polygon","coordinates":[[[20.915881,55.227171],[20.914486,55.227171],[20.914256,55.226868],[20.914001,55.226649],[20.914223,55.226512],[20.914621,55.226467],[20.915249,55.226411],[20.915383,55.226623],[20.915486,55.226646],[20.915651,55.226746],[20.915881,55.226825],[20.915881,55.227171]]]}},{"type":"Feature","properties":{"kind":"building","name":"","osm":"way/541341002"},"geometry":{"type":"Polygon","coordinates":[[[20.91413,55.227117],[20.914232,55.227074],[20.914265,55.2271],[20.914096,55.227171],[20.914458,55.227171],[20.914223,55.226989],[20.914055,55.227059],[20.91413,55.227117]]]}},{"type":"Feature","properties":{"kind":"building","name":"","osm":"way/541342212"},"geometry":{"type":"Polygon","coordinates":[[[20.912134,55.226994],[20.912294,55.226956],[20.912081,55.226664],[20.911922,55.226701],[20.912134,55.226994]]]}},{"type":"Feature","properties":{"kind":"building","name":"","osm":"way/541342213"},"geometry":{"type":"Polygon","coordinates":[[[20.912989,55.226822],[20.912848,55.226632],[20.913047,55.226584],[20.913102,55.226658],[20.913132,55.226651],[20.913214,55.226761],[20.913271,55.226747],[20.913313,55.226805],[20.913195,55.226833],[20.913157,55.226782],[20.912989,55.226822]]]}},{"type":"Feature","properties":{"kind":"building","name":"","osm":"way/541342214"},"geometry":{"type":"Polygon","coordinates":[[[20.91321,55.226441],[20.913118,55.226326],[20.913337,55.226269],[20.913429,55.226383],[20.91321,55.226441]]]}},{"type":"Feature","properties":{"kind":"road","name":"","osm":"way/541348323","highway":"service","access":"no","foot":""},"geometry":{"type":"LineString","coordinates":[[20.912551,55.227317],[20.912561,55.227159],[20.912277,55.226573],[20.911925,55.226023],[20.911825,55.225872],[20.911408,55.225278]]}},{"type":"Feature","properties":{"kind":"building","name":"","osm":"way/541348324"},"geometry":{"type":"Polygon","coordinates":[[[20.911193,55.226178],[20.911046,55.225986],[20.911159,55.225958],[20.911305,55.22615],[20.911193,55.226178]]]}},{"type":"Feature","properties":{"kind":"road","name":"","osm":"way/577868335","highway":"footway","access":"","foot":""},"geometry":{"type":"LineString","coordinates":[[20.891843,55.222131],[20.892434,55.221923]]}},{"type":"Feature","properties":{"kind":"road","name":"","osm":"way/577868336","highway":"footway","access":"","foot":""},"geometry":{"type":"LineString","coordinates":[[20.891541,55.222239],[20.891683,55.222189],[20.891831,55.222136],[20.891843,55.222131]]}},{"type":"Feature","properties":{"kind":"building","name":"","osm":"way/577868337"},"geometry":{"type":"Polygon","coordinates":[[[20.891843,55.222131],[20.891795,55.222085],[20.892389,55.221881],[20.892434,55.221923],[20.892476,55.221962],[20.891884,55.222169],[20.891843,55.222131]]]}},{"type":"Feature","properties":{"kind":"building","name":"","osm":"way/577868339"},"geometry":{"type":"Polygon","coordinates":[[[20.890006,55.22332],[20.889917,55.223359],[20.88989,55.22337],[20.890003,55.223456],[20.890119,55.223405],[20.890006,55.22332]]]}},{"type":"Feature","properties":{"kind":"road","name":"","osm":"way/577868340","highway":"steps","access":"","foot":""},"geometry":{"type":"LineString","coordinates":[[20.889447,55.223368],[20.889559,55.223326],[20.889582,55.223346],[20.88966,55.223317]]}},{"type":"Feature","properties":{"kind":"road","name":"","osm":"way/577868341","highway":"footway","access":"","foot":""},"geometry":{"type":"LineString","coordinates":[[20.889804,55.223206],[20.889839,55.223263],[20.88966,55.223317]]}},{"type":"Feature","properties":{"kind":"road","name":"","osm":"way/577868342","highway":"footway","access":"","foot":""},"geometry":{"type":"LineString","coordinates":[[20.889903,55.223017],[20.889804,55.223206]]}},{"type":"Feature","properties":{"kind":"road","name":"","osm":"way/577868343","highway":"footway","access":"","foot":""},"geometry":{"type":"LineString","coordinates":[[20.889444,55.222987],[20.889485,55.223164],[20.88966,55.223317]]}},{"type":"Feature","properties":{"kind":"road","name":"","osm":"way/577868344","highway":"footway","access":"","foot":""},"geometry":{"type":"LineString","coordinates":[[20.889822,55.222907],[20.889903,55.223017]]}},{"type":"Feature","properties":{"kind":"road","name":"","osm":"way/577868345","highway":"steps","access":"","foot":""},"geometry":{"type":"LineString","coordinates":[[20.889053,55.223076],[20.889214,55.22302],[20.889245,55.223049],[20.889367,55.223007]]}},{"type":"Feature","properties":{"kind":"road","name":"","osm":"way/577868346","highway":"steps","access":"","foot":""},"geometry":{"type":"LineString","coordinates":[[20.901265,55.220772],[20.901265,55.2207]]}},{"type":"Feature","properties":{"kind":"road","name":"","osm":"way/577868348","highway":"footway","access":"","foot":""},"geometry":{"type":"LineString","coordinates":[[20.901506,55.221121],[20.901511,55.221041]]}},{"type":"Feature","properties":{"kind":"road","name":"","osm":"way/724533398","highway":"primary","access":"","foot":""},"geometry":{"type":"LineString","coordinates":[[20.892278,55.222815],[20.891541,55.222239],[20.891335,55.222079],[20.890979,55.221803]]}},{"type":"Feature","properties":{"kind":"road","name":"","osm":"way/724533399","highway":"primary","access":"","foot":""},"geometry":{"type":"LineString","coordinates":[[20.909991,55.237072],[20.909677,55.236812],[20.908255,55.235624],[20.905422,55.233429],[20.905092,55.233161],[20.895855,55.22576],[20.892319,55.222849],[20.892278,55.222815]]}},{"type":"Feature","properties":{"kind":"road","name":"","osm":"way/724533401","highway":"footway","access":"","foot":""},"geometry":{"type":"LineString","coordinates":[[20.902059,55.221163],[20.902101,55.221116]]}},{"type":"Feature","properties":{"kind":"road","name":"","osm":"way/777345347","highway":"track","access":"","foot":""},"geometry":{"type":"LineString","coordinates":[[20.908926,55.228985],[20.907571,55.22884],[20.906573,55.228155],[20.907024,55.226882],[20.90682,55.226711],[20.90682,55.22665],[20.906949,55.226466],[20.906273,55.225732],[20.906294,55.225603],[20.905607,55.224986],[20.904116,55.223303],[20.903417,55.222536],[20.90314,55.222232],[20.902884,55.221984],[20.902628,55.221736],[20.902392,55.221508],[20.902292,55.221412]]}},{"type":"Feature","properties":{"kind":"road","name":"","osm":"way/777345348","highway":"path","access":"","foot":""},"geometry":{"type":"LineString","coordinates":[[20.90314,55.222232],[20.904288,55.221779],[20.90432,55.221711],[20.904578,55.221559],[20.904668,55.221443]]}},{"type":"Feature","properties":{"kind":"road","name":"","osm":"way/777345349","highway":"path","access":"","foot":""},"geometry":{"type":"LineString","coordinates":[[20.912814,55.229669],[20.912835,55.22959],[20.912288,55.229149],[20.912084,55.229174],[20.910947,55.228293],[20.911129,55.228176],[20.910432,55.227357],[20.909971,55.226726],[20.909896,55.226482],[20.909681,55.226359],[20.909541,55.225539],[20.909541,55.225429],[20.909059,55.224481],[20.907911,55.22352],[20.9076,55.223269],[20.907567,55.223134],[20.907578,55.222896],[20.906409,55.222002],[20.906248,55.221696],[20.906073,55.22152]]}},{"type":"Feature","properties":{"kind":"building","name":"","osm":"way/780597787"},"geometry":{"type":"Polygon","coordinates":[[[20.907243,55.226715],[20.907322,55.226784],[20.907511,55.226713],[20.907431,55.226644],[20.907243,55.226715]]]}},{"type":"Feature","properties":{"kind":"road","name":"","osm":"way/824236849","highway":"path","access":"","foot":""},"geometry":{"type":"LineString","coordinates":[[20.885713,55.219217],[20.887162,55.218607],[20.888268,55.218103],[20.891538,55.216815],[20.892627,55.21651]]}},{"type":"Feature","properties":{"kind":"road","name":"","osm":"way/947573031","highway":"track","access":"","foot":""},"geometry":{"type":"LineString","coordinates":[[20.905606,55.22153],[20.904587,55.222072],[20.903417,55.222536],[20.898768,55.224382],[20.898549,55.224112],[20.898314,55.223822],[20.8981,55.223557],[20.897944,55.223364],[20.897928,55.22324],[20.897841,55.222522],[20.897034,55.22167],[20.896845,55.221151],[20.896407,55.220724]]}},{"type":"Feature","properties":{"kind":"road","name":"","osm":"way/947573032","highway":"track","access":"","foot":""},"geometry":{"type":"LineString","coordinates":[[20.90314,55.222232],[20.898549,55.224112]]}},{"type":"Feature","properties":{"kind":"road","name":"","osm":"way/947573033","highway":"track","access":"","foot":""},"geometry":{"type":"LineString","coordinates":[[20.904099,55.221391],[20.903737,55.221659],[20.902884,55.221984],[20.898314,55.223822]]}},{"type":"Feature","properties":{"kind":"road","name":"","osm":"way/947573034","highway":"track","access":"","foot":""},"geometry":{"type":"LineString","coordinates":[[20.8981,55.223557],[20.902628,55.221736],[20.903579,55.221345]]}},{"type":"Feature","properties":{"kind":"road","name":"","osm":"way/966324947","highway":"footway","access":"","foot":""},"geometry":{"type":"LineString","coordinates":[[20.902426,55.221245],[20.902434,55.221223]]}},{"type":"Feature","properties":{"kind":"road","name":"","osm":"way/966324948","highway":"footway","access":"","foot":""},"geometry":{"type":"LineString","coordinates":[[20.892814,55.221781],[20.892886,55.221847],[20.891901,55.2222],[20.891831,55.222136]]}},{"type":"Feature","properties":{"kind":"green","name":"","osm":"way/1105571593"},"geometry":{"type":"Polygon","coordinates":[[[20.911925,55.226023],[20.913394,55.225058],[20.912745,55.224806],[20.91283,55.224973],[20.91244,55.224966],[20.912101,55.224796],[20.911528,55.224426],[20.91145,55.22486],[20.911408,55.225278],[20.911925,55.226023]]]}},{"type":"Feature","properties":{"kind":"sand","name":"","osm":"way/1328317912"},"geometry":{"type":"Polygon","coordinates":[[[20.911881,55.227171],[20.911795,55.227078],[20.911855,55.227062],[20.911808,55.226956],[20.911602,55.226862],[20.911389,55.226831],[20.911279,55.226957],[20.911307,55.227171],[20.911881,55.227171]]]}},{"type":"Feature","properties":{"kind":"building","name":"","osm":"way/1335775055"},"geometry":{"type":"Polygon","coordinates":[[[20.891273,55.222429],[20.891428,55.222448],[20.891457,55.22237],[20.891302,55.222351],[20.891273,55.222429]]]}},{"type":"Feature","properties":{"kind":"building","name":"","osm":"way/1335775056"},"geometry":{"type":"Polygon","coordinates":[[[20.890814,55.22249],[20.89094,55.222434],[20.890859,55.222374],[20.890732,55.22243],[20.890814,55.22249]]]}},{"type":"Feature","properties":{"kind":"road","name":"","osm":"way/1335775057","highway":"steps","access":"","foot":""},"geometry":{"type":"LineString","coordinates":[[20.906178,55.221497],[20.906326,55.221409],[20.906431,55.221323],[20.906429,55.2212],[20.906354,55.221204],[20.906349,55.221181],[20.90629,55.221181]]}},{"type":"Feature","properties":{"kind":"road","name":"","osm":"way/1335775058","highway":"steps","access":"","foot":""},"geometry":{"type":"LineString","coordinates":[[20.896407,55.220724],[20.896894,55.220753],[20.89762,55.220821],[20.898129,55.220924],[20.898838,55.220993],[20.899438,55.221012],[20.900698,55.221074],[20.901064,55.221096],[20.901506,55.221121],[20.902059,55.221163],[20.902293,55.22124],[20.902426,55.221245],[20.902573,55.221256]]}},{"type":"Feature","properties":{"kind":"road","name":"","osm":"way/1381709145","highway":"footway","access":"","foot":""},"geometry":{"type":"LineString","coordinates":[[20.892434,55.221923],[20.892814,55.221781],[20.894334,55.221122]]}},{"type":"Feature","properties":{"kind":"road","name":"","osm":"way/1413073513","highway":"track","access":"","foot":""},"geometry":{"type":"LineString","coordinates":[[20.890882,55.221717],[20.89107,55.22168],[20.891154,55.221772],[20.891683,55.222189],[20.892355,55.222707],[20.892338,55.222775],[20.892319,55.222849]]}},{"type":"Feature","properties":{"kind":"road","name":"","osm":"way/1413073514","highway":"footway","access":"","foot":""},"geometry":{"type":"LineString","coordinates":[[20.892338,55.222775],[20.892278,55.222815],[20.892162,55.222829]]}},{"type":"Feature","properties":{"kind":"road","name":"","osm":"way/1413073515","highway":"service","access":"","foot":""},"geometry":{"type":"LineString","coordinates":[[20.891192,55.222135],[20.891335,55.222079]]}}],"bbox":[20.883365191926593,55.21519163295005,20.915880508073407,55.227170567049946],"route":"vysota-efa","source":"OpenStreetMap","checked_at":"2026-10-01","license":"ODbL-1.0","license_url":"https://opendatacommons.org/licenses/odbl/1-0/"}
